No.,File Name,Pole Number,Location,Full Address,Latitude,Longitude,GPS Coordinates,Date/Time,Captured By,Uploaded By,Status
1,ABKU4865.JPG,LAW-P-1000,"Lawley, Gauteng, South Africa","Piranha Crescent, Lawley, Lawley, Gauteng 1830, South Africa",-26.378638,27.800381,"-26.378638, 27.800381","7/23/25, 12:10 PM GMT+02:00",GPS Map Camera,ettienejvr@gmail.com,Captured
2,ABOW5086.JPG,LAW-P-1001,"Lawley, Gauteng, South Africa","Lawley Road, Lawley Extento, Lawley, Gauteng 1830, South Africa",-26.368556,27.818473,"-26.368556, 27.818473","7/23/25, 11:03 AM GMT+02:00",GPS Map Camera,ettienejvr@gmail.com,Captured
3,AEJD0192.JPG,LAW-P-1002,"Lawley, Gauteng, South Africa","2nd Avenue, Elandsfontein, Lawley, Gauteng 1830, South Africa",-26.369585,27.803513,"-26.369585, 27.803513","7/23/25, 9:30 AM GMT+02:00",GPS Map Camera,ettienejvr@gmail.com,Captured
4,AFKK3290.JPG,LAW-P-1003,"Lawley, Gauteng, South Africa","3rd Avenue, Lawley, Lawley, Gauteng 1830, South Africa",-26.392052,27.807291,"-26.392052, 27.807291","7/23/25, 9:20 AM GMT+02:00",GPS Map Camera,ettienejvr@gmail.com,Captured
5,AGJO0968.JPG,LAW-P-1004,"Lawley, Gauteng, South Africa","Market Street, Lawley Extento, Lawley, Gauteng 1830, South Africa",-26.393068,27.819529,"-26.393068, 27.819529","7/23/25, 1:17 PM GMT+02:00",GPS Map Camera,ettienejvr@gmail.com,Captured
6,ALDT8478.JPG,LAW-P-1005,"Lawley, Gauteng, South Africa","Main Road, Elandsfontein, Lawley, Gauteng 1830, South Africa",-26.389182,27.811025,"-26.389182, 27.811025","7/23/25, 1:55 PM GMT+02:00",GPS Map Camera,ettienejvr@gmail.com,Captured
7,ANGT3574.JPG,LAW-P-1006,"Lawley, Gauteng, South Africa","Church Street, Lawley, Lawley, Gauteng 1830, South Africa",-26.364389,27.802318,"-26.364389, 27.802318","7/23/25, 9:25 AM GMT+02:00",GPS Map Camera,ettienejvr@gmail.com,Captured
8,AQXY9444.JPG,LAW-P-1007,"Lawley, Gauteng, South Africa","School Street, Lawley Extento, Lawley, Gauteng 1830, South Africa",-26.383677,27.814149,"-26.383677, 27.814149","7/23/25, 12:01 PM GMT+02:00",GPS Map Camera,ettienejvr@gmail.com,Captured
9,ARDJ2862.JPG,LAW-P-1008,"Lawley, Gauteng, South Africa","Mandela Street, Elandsfontein, Lawley, Gauteng 1830, South Africa",-26.399132,27.801025,"-26.399132, 27.801025","7/23/25, 3:59 PM GMT+02:00",GPS Map Camera,ettienejvr@gmail.com,Captured
10,ARGS9536.JPG,LAW-P-1009,"Lawley, Gauteng, South Africa","2nd Avenue, Lawley Extento, Lawley, Gauteng 1830, South Africa",-26.37387,27.810132,"-26.37387, 27.810132",07/23/2025 02:05 PM GMT+02:00,GPS Map Camera,ettienejvr@gmail.com,Captured
11,ARZV1695.JPG,LAW-P-1010,"Lawley, Gauteng, South Africa","Unity Road, Lawley Extento, Lawley, Gauteng 1830, South Africa",-26.364504,27.811866,"-26.364504, 27.811866","7/23/25, 9:20 AM GMT+02:00",GPS Map Camera,ettienejvr@gmail.com,Captured
12,ASFR5899.JPG,LAW-P-1011,"Lawley, Gauteng, South Africa","Hope Street, Elandsfontein, Lawley, Gauteng 1830, South Africa",-26.387861,27.802056,"-26.387861, 27.802056","7/23/25, 8:00 AM GMT+02:00",GPS Map Camera,ettienejvr@gmail.com,Captured
13,AVQE2541.JPG,LAW-P-1012,"Lawley, Gauteng, South Africa","Piranha Crescent, Lawley, Lawley, Gauteng 1830, South Africa",-26.385293,27.811051,"-26.385293, 27.811051","7/23/25, 11:28 AM GMT+02:00",GPS Map Camera,ettienejvr@gmail.com,Captured
14,AXWD8963.JPG,LAW-P-1013,"Lawley, Gauteng, South Africa","Lawley Road, Lawley Extento, Lawley, Gauteng 1830, South Africa",-26.394099,27.814558,"-26.394099, 27.814558","7/23/25, 10:36 AM GMT+02:00",GPS Map Camera,ettienejvr@gmail.com,Captured
15,BAHM3423.JPG,LAW-P-1014,"Lawley, Gauteng, South Africa","2nd Avenue, Elandsfontein, Lawley, Gauteng 1830, South Africa",-26.380164,27.804344,"-26.380164, 27.804344","7/23/25, 2:15 PM GMT+02:00",GPS Map Camera,ettienejvr@gmail.com,Captured
16,BBFL7303.JPG,LAW-P-1015,"Lawley, Gauteng, South Africa","3rd Avenue, Lawley, Lawley, Gauteng 1830, South Africa",-26.363423,27.815918,"-26.363423, 27.815918","7/23/25, 2:09 PM GMT+02:00",GPS Map Camera,ettienejvr@gmail.com,Captured
17,BBNO8820.JPG,LAW-P-1016,"Lawley, Gauteng, South Africa","Market Street, Lawley Extento, Lawley, Gauteng 1830, South Africa",-26.376488,27.813842,"-26.376488, 27.813842","7/23/25, 9:56 AM GMT+02:00",GPS Map Camera,ettienejvr@gmail.com,Captured
18,BIZJ8490.JPG,LAW-P-1017,"Lawley, Gauteng, South Africa","Main Road, Elandsfontein, Lawley, Gauteng 1830, South Africa",-26.394308,27.800565,"-26.394308, 27.800565","7/23/25, 8:40 AM GMT+02:00",GPS Map Camera,ettienejvr@gmail.com,Captured
19,BMCZ3397.JPG,LAW-P-1018,"Lawley, Gauteng, South Africa","Church Street, Lawley, Lawley, Gauteng 1830, South Africa",-26.36366,27.819637,"-26.36366, 27.819637","7/23/25, 2:05 PM GMT+02:00",GPS Map Camera,ettienejvr@gmail.com,Captured
20,BMES8191.JPG,LAW-P-1019,"Lawley, Gauteng, South Africa","School Street, Lawley Extento, Lawley, Gauteng 1830, South Africa",-26.392388,27.809533,"-26.392388, 27.809533","7/23/25, 9:30 AM GMT+02:00",GPS Map Camera,ettienejvr@gmail.com,Captured
21,BNZL9622.JPG,LAW-P-1020,"Lawley, Gauteng, South Africa","Mandela Street, Elandsfontein, Lawley, Gauteng 1830, South Africa",-26.360715,27.818996,"-26.360715, 27.818996","7/23/25, 12:35 PM GMT+02:00",GPS Map Camera,ettienejvr@gmail.com,Captured
22,BOTI0083.JPG,LAW-P-1021,"Lawley, Gauteng, South Africa","Freedom Way, Lawley, Lawley, Gauteng 1830, South Africa",-26.365596,27.809465,"-26.365596, 27.809465","7/23/25, 2:07 PM GMT+02:00",GPS Map Camera,ettienejvr@gmail.com,Captured
23,BRMQ8573.JPG,LAW-P-1022,"Lawley, Gauteng, South Africa","Unity Road, Lawley Extento, Lawley, Gauteng 1830, South Africa",-26.392793,27.815697,"-26.392793, 27.815697","7/23/25, 2:37 PM GMT+02:00",GPS Map Camera,ettienejvr@gmail.com,Captured
24,BSAC1151.JPG,LAW-P-1023,"Lawley, Gauteng, South Africa","Hope Street, Elandsfontein, Lawley, Gauteng 1830, South Africa",-26.397737,27.809292,"-26.397737, 27.809292","7/23/25, 3:44 PM GMT+02:00",GPS Map Camera,ettienejvr@gmail.com,Captured
25,BSVV3015.JPG,LAW-P-1024,"Lawley, Gauteng, South Africa","Piranha Crescent, Lawley, Lawley, Gauteng 1830, South Africa",-26.392238,27.815878,"-26.392238, 27.815878","7/23/25, 8:32 AM GMT+02:00",GPS Map Camera,ettienejvr@gmail.com,Captured
26,BVXT8184.JPG,LAW-P-1025,"Lawley, Gauteng, South Africa","Lawley Road, Lawley Extento, Lawley, Gauteng 1830, South Africa",-26.363665,27.803309,"-26.363665, 27.803309","7/23/25, 2:55 PM GMT+02:00",GPS Map Camera,ettienejvr@gmail.com,Captured
27,BWHK1080.JPG,LAW-P-1026,"Lawley, Gauteng, South Africa","2nd Avenue, Elandsfontein, Lawley, Gauteng 1830, South Africa",-26.387515,27.801537,"-26.387515, 27.801537","7/23/25, 12:44 PM GMT+02:00",GPS Map Camera,ettienejvr@gmail.com,Captured
28,BYZJ7377.JPG,LAW-P-1027,"Lawley, Gauteng, South Africa","3rd Avenue, Lawley, Lawley, Gauteng 1830, South Africa",-26.392933,27.80091,"-26.392933, 27.80091","7/23/25, 1:21 PM GMT+02:00",GPS Map Camera,ettienejvr@gmail.com,Captured
29,CCHC6189.JPG,LAW-P-1028,"Lawley, Gauteng, South Africa","Market Street, Lawley Extento, Lawley, Gauteng 1830, South Africa",-26.378863,27.809112,"-26.378863, 27.809112","7/23/25, 8:17 AM GMT+02:00",GPS Map Camera,ettienejvr@gmail.com,Captured
30,CFEZ4826.JPG,LAW-P-1029,"Lawley, Gauteng, South Africa","Main Road, Elandsfontein, Lawley, Gauteng 1830, South Africa",-26.370096,27.816945,"-26.370096, 27.816945","7/23/25, 9:09 AM GMT+02:00",GPS Map Camera,ettienejvr@gmail.com,Captured
31,CHXX4480.JPG,LAW-P-1030,"Lawley, Gauteng, South Africa","Church Street, Lawley, Lawley, Gauteng 1830, South Africa",-26.368881,27.808025,"-26.368881, 27.808025","7/23/25, 8:35 AM GMT+02:00",GPS Map Camera,ettienejvr@gmail.com,Captured
32,CIFN6820.JPG,LAW-P-1031,"Lawley, Gauteng, South Africa","School Street, Lawley Extento, Lawley, Gauteng 1830, South Africa",-26.378524,27.815968,"-26.378524, 27.815968","7/23/25, 1:42 PM GMT+02:00",GPS Map Camera,ettienejvr@gmail.com,Captured
33,CKCL1172.JPG,LAW-P-1032,"Lawley, Gauteng, South Africa","Mandela Street, Elandsfontein, Lawley, Gauteng 1830, South Africa",-26.388634,27.817301,"-26.388634, 27.817301","7/23/25, 8:46 AM GMT+02:00",GPS Map Camera,ettienejvr@gmail.com,Captured
34,CMFB6989.JPG,LAW-P-1033,"Lawley, Gauteng, South Africa","Freedom Way, Lawley, Lawley, Gauteng 1830, South Africa",-26.375152,27.813814,"-26.375152, 27.813814","7/23/25, 9:26 AM GMT+02:00",GPS Map Camera,ettienejvr@gmail.com,Captured
35,CNPR3546.JPG,LAW-P-1034,"Lawley, Gauteng, South Africa","Unity Road, Lawley Extento, Lawley, Gauteng 1830, South Africa",-26.372477,27.812675,"-26.372477, 27.812675","7/23/25, 1:33 PM GMT+02:00",GPS Map Camera,ettienejvr@gmail.com,Captured
36,CPIY3449.JPG,LAW-P-1035,"Lawley, Gauteng, South Africa","Hope Street, Elandsfontein, Lawley, Gauteng 1830, South Africa",-26.360234,27.813077,"-26.360234, 27.813077","7/23/25, 12:33 PM GMT+02:00",GPS Map Camera,ettienejvr@gmail.com,Captured
37,CRCM2517.JPG,LAW-P-1036,"Lawley, Gauteng, South Africa","Piranha Crescent, Lawley, Lawley, Gauteng 1830, South Africa",-26.381229,27.807238,"-26.381229, 27.807238","7/23/25, 8:29 AM GMT+02:00",GPS Map Camera,ettienejvr@gmail.com,Captured
38,CURY0142.JPG,LAW-P-1037,"Lawley, Gauteng, South Africa","Lawley Road, Lawley Extento, Lawley, Gauteng 1830, South Africa",-26.391449,27.814626,"-26.391449, 27.814626","7/23/25, 11:10 AM GMT+02:00",GPS Map Camera,ettienejvr@gmail.com,Captured
39,CUZE5708.JPG,LAW-P-1038,"Lawley, Gauteng, South Africa","2nd Avenue, Elandsfontein, Lawley, Gauteng 1830, South Africa",-26.393202,27.801099,"-26.393202, 27.801099","7/23/25, 9:46 AM GMT+02:00",GPS Map Camera,ettienejvr@gmail.com,Captured
40,CVYD6786.JPG,LAW-P-1039,"Lawley, Gauteng, South Africa","3rd Avenue, Lawley, Lawley, Gauteng 1830, South Africa",-26.377299,27.805977,"-26.377299, 27.805977","7/23/25, 11:35 AM GMT+02:00",GPS Map Camera,ettienejvr@gmail.com,Captured
41,CWVA8617.JPG,LAW-P-1040,"Lawley, Gauteng, South Africa","Market Street, Lawley Extento, Lawley, Gauteng 1830, South Africa",-26.361064,27.815156,"-26.361064, 27.815156","7/23/25, 12:37 PM GMT+02:00",GPS Map Camera,ettienejvr@gmail.com,Captured
42,DIVV9861.JPG,LAW-P-1041,"Lawley, Gauteng, South Africa","Main Road, Elandsfontein, Lawley, Gauteng 1830, South Africa",-26.36258,27.816105,"-26.36258, 27.816105","7/23/25, 10:31 AM GMT+02:00",GPS Map Camera,ettienejvr@gmail.com,Captured
43,DLED9593.JPG,LAW-P-1042,"Lawley, Gauteng, South Africa","Church Street, Lawley, Lawley, Gauteng 1830, South Africa",-26.384559,27.809323,"-26.384559, 27.809323","7/23/25, 8:37 AM GMT+02:00",GPS Map Camera,ettienejvr@gmail.com,Captured
44,DMWX1009.JPG,LAW-P-1043,"Lawley, Gauteng, South Africa","School Street, Lawley Extento, Lawley, Gauteng 1830, South Africa",-26.379618,27.809479,"-26.379618, 27.809479","7/23/25, 12:53 PM GMT+02:00",GPS Map Camera,ettienejvr@gmail.com,Captured
45,DSSJ8820.JPG,LAW-P-1044,"Lawley, Gauteng, South Africa","Mandela Street, Elandsfontein, Lawley, Gauteng 1830, South Africa",-26.390851,27.818117,"-26.390851, 27.818117","7/23/25, 2:17 PM GMT+02:00",GPS Map Camera,ettienejvr@gmail.com,Captured
46,DWIS9846.JPG,LAW-P-1045,"Lawley, Gauteng, South Africa","Freedom Way, Lawley, Lawley, Gauteng 1830, South Africa",-26.381908,27.811797,"-26.381908, 27.811797","7/23/25, 2:39 PM GMT+02:00",GPS Map Camera,ettienejvr@gmail.com,Captured
47,DXGS2451.JPG,LAW-P-1046,"Lawley, Gauteng, South Africa","Unity Road, Lawley Extento, Lawley, Gauteng 1830, South Africa",-26.378083,27.805887,"-26.378083, 27.805887","7/23/25, 9:39 AM GMT+02:00",GPS Map Camera,ettienejvr@gmail.com,Captured
48,ECAT6148.JPG,LAW-P-1047,"Lawley, Gauteng, South Africa","Hope Street, Elandsfontein, Lawley, Gauteng 1830, South Africa",-26.373301,27.811033,"-26.373301, 27.811033","7/23/25, 11:22 AM GMT+02:00",GPS Map Camera,ettienejvr@gmail.com,Captured
49,EGVZ5387.JPG,LAW-P-1048,"Lawley, Gauteng, South Africa","Piranha Crescent, Lawley, Lawley, Gauteng 1830, South Africa",-26.36372,27.816953,"-26.36372, 27.816953","7/23/25, 9:35 AM GMT+02:00",GPS Map Camera,ettienejvr@gmail.com,Captured
50,EJGI5277.JPG,LAW-P-1049,"Lawley, Gauteng, South Africa","Lawley Road, Lawley Extento, Lawley, Gauteng 1830, South Africa",-26.369488,27.808368,"-26.369488, 27.808368","7/23/25, 3:00 PM GMT+02:00",GPS Map Camera,ettienejvr@gmail.com,Captured
51,EJOW5275.JPG,LAW-P-1050,"Lawley, Gauteng, South Africa","2nd Avenue, Elandsfontein, Lawley, Gauteng 1830, South Africa",-26.36257,27.806118,"-26.36257, 27.806118","7/23/25, 12:53 PM GMT+02:00",GPS Map Camera,ettienejvr@gmail.com,Captured
52,EKVB0045.JPG,LAW-P-1051,"Lawley, Gauteng, South Africa","3rd Avenue, Lawley, Lawley, Gauteng 1830, South Africa",-26.378301,27.801917,"-26.378301, 27.801917","7/23/25, 10:31 AM GMT+02:00",GPS Map Camera,ettienejvr@gmail.com,Captured
53,ELEF5957.JPG,LAW-P-1052,"Lawley, Gauteng, South Africa","Market Street, Lawley Extento, Lawley, Gauteng 1830, South Africa",-26.375321,27.814205,"-26.375321, 27.814205","7/23/25, 11:20 AM GMT+02:00",GPS Map Camera,ettienejvr@gmail.com,Captured
54,ELGT6458.JPG,LAW-P-1053,"Lawley, Gauteng, South Africa","Main Road, Elandsfontein, Lawley, Gauteng 1830, South Africa",-26.364711,27.818324,"-26.364711, 27.818324","7/23/25, 11:33 AM GMT+02:00",GPS Map Camera,ettienejvr@gmail.com,Captured
55,EOCV4425.JPG,LAW-P-1054,"Lawley, Gauteng, South Africa","Church Street, Lawley, Lawley, Gauteng 1830, South Africa",-26.363445,27.802383,"-26.363445, 27.802383","7/23/25, 12:38 PM GMT+02:00",GPS Map Camera,ettienejvr@gmail.com,Captured
56,EOIZ5717.JPG,LAW-P-1055,"Lawley, Gauteng, South Africa","School Street, Lawley Extento, Lawley, Gauteng 1830, South Africa",-26.391794,27.81485,"-26.391794, 27.81485","7/23/25, 8:44 AM GMT+02:00",GPS Map Camera,ettienejvr@gmail.com,Captured
57,ETTC0277.JPG,LAW-P-1056,"Lawley, Gauteng, South Africa","Mandela Street, Elandsfontein, Lawley, Gauteng 1830, South Africa",-26.364318,27.810174,"-26.364318, 27.810174","7/23/25, 8:49 AM GMT+02:00",GPS Map Camera,ettienejvr@gmail.com,Captured
58,EWBU1563.JPG,LAW-P-1057,"Lawley, Gauteng, South Africa","Freedom Way, Lawley, Lawley, Gauteng 1830, South Africa",-26.365477,27.817913,"-26.365477, 27.817913","7/23/25, 12:46 PM GMT+02:00",GPS Map Camera,ettienejvr@gmail.com,Captured
59,EWPN3355.JPG,LAW-P-1058,"Lawley, Gauteng, South Africa","Unity Road, Lawley Extento, Lawley, Gauteng 1830, South Africa",-26.375999,27.801308,"-26.375999, 27.801308","7/23/25, 11:11 AM GMT+02:00",GPS Map Camera,ettienejvr@gmail.com,Captured
60,EYVK8258.JPG,LAW-P-1059,"Lawley, Gauteng, South Africa","Hope Street, Elandsfontein, Lawley, Gauteng 1830, South Africa",-26.381328,27.808556,"-26.381328, 27.808556","7/23/25, 10:46 AM GMT+02:00",GPS Map Camera,ettienejvr@gmail.com,Captured
61,FCRK6534.JPG,LAW-P-1060,"Lawley, Gauteng, South Africa","Piranha Crescent, Lawley, Lawley, Gauteng 1830, South Africa",-26.386891,27.8118,"-26.386891, 27.8118","7/23/25, 11:53 AM GMT+02:00",GPS Map Camera,ettienejvr@gmail.com,Captured
62,FEDH2359.JPG,LAW-P-1061,"Lawley, Gauteng, South Africa","Lawley Road, Lawley Extento, Lawley, Gauteng 1830, South Africa",-26.37641,27.816788,"-26.37641, 27.816788","7/23/25, 1:25 PM GMT+02:00",GPS Map Camera,ettienejvr@gmail.com,Captured
63,FGYH9883.JPG,LAW-P-1062,"Lawley, Gauteng, South Africa","2nd Avenue, Elandsfontein, Lawley, Gauteng 1830, South Africa",-26.39193,27.814589,"-26.39193, 27.814589","7/23/25, 12:00 PM GMT+02:00",GPS Map Camera,ettienejvr@gmail.com,Captured
64,FKAS6112.JPG,LAW-P-1063,"Lawley, Gauteng, South Africa","3rd Avenue, Lawley, Lawley, Gauteng 1830, South Africa",-26.372213,27.805734,"-26.372213, 27.805734","7/23/25, 9:47 AM GMT+02:00",GPS Map Camera,ettienejvr@gmail.com,Captured
65,FOBP7095.JPG,LAW-P-1064,"Lawley, Gauteng, South Africa","Market Street, Lawley Extento, Lawley, Gauteng 1830, South Africa",-26.373038,27.812357,"-26.373038, 27.812357","7/23/25, 2:37 PM GMT+02:00",GPS Map Camera,ettienejvr@gmail.com,Captured
66,FPRN8261.JPG,LAW-P-1065,"Lawley, Gauteng, South Africa","Main Road, Elandsfontein, Lawley, Gauteng 1830, South Africa",-26.380418,27.801657,"-26.380418, 27.801657","7/23/25, 2:28 PM GMT+02:00",GPS Map Camera,ettienejvr@gmail.com,Captured
67,FPUA8230.JPG,LAW-P-1066,"Lawley, Gauteng, South Africa","Church Street, Lawley, Lawley, Gauteng 1830, South Africa",-26.362439,27.806402,"-26.362439, 27.806402","7/23/25, 10:00 AM GMT+02:00",GPS Map Camera,ettienejvr@gmail.com,Captured
68,FQHP7703.JPG,LAW-P-1067,"Lawley, Gauteng, South Africa","School Street, Lawley Extento, Lawley, Gauteng 1830, South Africa",-26.386013,27.816957,"-26.386013, 27.816957","7/23/25, 11:09 AM GMT+02:00",GPS Map Camera,ettienejvr@gmail.com,Captured
69,FRZT7746.JPG,LAW-P-1068,"Lawley, Gauteng, South Africa","Mandela Street, Elandsfontein, Lawley, Gauteng 1830, South Africa",-26.368419,27.80872,"-26.368419, 27.80872","7/23/25, 12:12 PM GMT+02:00",GPS Map Camera,ettienejvr@gmail.com,Captured
70,FSIE6113.JPG,LAW-P-1069,"Lawley, Gauteng, South Africa","Freedom Way, Lawley, Lawley, Gauteng 1830, South Africa",-26.377685,27.811219,"-26.377685, 27.811219","7/23/25, 12:55 PM GMT+02:00",GPS Map Camera,ettienejvr@gmail.com,Captured
71,FUUK5806.JPG,LAW-P-1070,"Lawley, Gauteng, South Africa","Unity Road, Lawley Extento, Lawley, Gauteng 1830, South Africa",-26.369635,27.814716,"-26.369635, 27.814716","7/23/25, 1:04 PM GMT+02:00",GPS Map Camera,ettienejvr@gmail.com,Captured
72,FVNM8623.JPG,LAW-P-1071,"Lawley, Gauteng, South Africa","Hope Street, Elandsfontein, Lawley, Gauteng 1830, South Africa",-26.378283,27.808448,"-26.378283, 27.808448","7/23/25, 9:46 AM GMT+02:00",GPS Map Camera,ettienejvr@gmail.com,Captured
73,FWNA8701.JPG,LAW-P-1072,"Lawley, Gauteng, South Africa","Piranha Crescent, Lawley, Lawley, Gauteng 1830, South Africa",-26.398913,27.80441,"-26.398913, 27.80441","7/23/25, 1:56 PM GMT+02:00",GPS Map Camera,ettienejvr@gmail.com,Captured
74,FZCN1104.JPG,LAW-P-1073,"Lawley, Gauteng, South Africa","Lawley Road, Lawley Extento, Lawley, Gauteng 1830, South Africa",-26.386947,27.814233,"-26.386947, 27.814233","7/23/25, 2:55 PM GMT+02:00",GPS Map Camera,ettienejvr@gmail.com,Captured
75,GBBN9148.JPG,LAW-P-1074,"Lawley, Gauteng, South Africa","2nd Avenue, Elandsfontein, Lawley, Gauteng 1830, South Africa",-26.360086,27.810486,"-26.360086, 27.810486","7/23/25, 9:30 AM GMT+02:00",GPS Map Camera,ettienejvr@gmail.com,Captured
76,GDJF1059.JPG,LAW-P-1075,"Lawley, Gauteng, South Africa","3rd Avenue, Lawley, Lawley, Gauteng 1830, South Africa",-26.375042,27.812435,"-26.375042, 27.812435","7/23/25, 10:16 AM GMT+02:00",GPS Map Camera,ettienejvr@gmail.com,Captured
77,GFXE6104.JPG,LAW-P-1076,"Lawley, Gauteng, South Africa","Market Street, Lawley Extento, Lawley, Gauteng 1830, South Africa",-26.388652,27.800471,"-26.388652, 27.800471","7/23/25, 1:07 PM GMT+02:00",GPS Map Camera,ettienejvr@gmail.com,Captured
78,GHOQ0380.JPG,LAW-P-1077,"Lawley, Gauteng, South Africa","Main Road, Elandsfontein, Lawley, Gauteng 1830, South Africa",-26.36415,27.819052,"-26.36415, 27.819052","7/23/25, 10:55 AM GMT+02:00",GPS Map Camera,ettienejvr@gmail.com,Captured
79,GPLX1215.JPG,LAW-P-1078,"Lawley, Gauteng, South Africa","Church Street, Lawley, Lawley, Gauteng 1830, South Africa",-26.392621,27.817282,"-26.392621, 27.817282","7/23/25, 9:42 AM GMT+02:00",GPS Map Camera,ettienejvr@gmail.com,Captured
80,GTVE5972.JPG,LAW-P-1079,"Lawley, Gauteng, South Africa","School Street, Lawley Extento, Lawley, Gauteng 1830, South Africa",-26.366601,27.816547,"-26.366601, 27.816547","7/23/25, 3:50 PM GMT+02:00",GPS Map Camera,ettienejvr@gmail.com,Captured
81,GUFJ6642.JPG,LAW-P-1080,"Lawley, Gauteng, South Africa","Mandela Street, Elandsfontein, Lawley, Gauteng 1830, South Africa",-26.373085,27.808688,"-26.373085, 27.808688","7/23/25, 8:43 AM GMT+02:00",GPS Map Camera,ettienejvr@gmail.com,Captured
82,GVSQ9506.JPG,LAW-P-1081,"Lawley, Gauteng, South Africa","Freedom Way, Lawley, Lawley, Gauteng 1830, South Africa",-26.385145,27.807126,"-26.385145, 27.807126","7/23/25, 1:49 PM GMT+02:00",GPS Map Camera,ettienejvr@gmail.com,Captured
83,GXLF7888.JPG,LAW-P-1082,"Lawley, Gauteng, South Africa","Unity Road, Lawley Extento, Lawley, Gauteng 1830, South Africa",-26.370714,27.817761,"-26.370714, 27.817761","7/23/25, 2:43 PM GMT+02:00",GPS Map Camera,ettienejvr@gmail.com,Captured
84,GXPW1294.JPG,LAW-P-1083,"Lawley, Gauteng, South Africa","Hope Street, Elandsfontein, Lawley, Gauteng 1830, South Africa",-26.374897,27.810187,"-26.374897, 27.810187","7/23/25, 9:22 AM GMT+02:00",GPS Map Camera,ettienejvr@gmail.com,Captured
85,GYRT1650.JPG,LAW-P-1084,"Lawley, Gauteng, South Africa","Piranha Crescent, Lawley, Lawley, Gauteng 1830, South Africa",-26.369721,27.803143,"-26.369721, 27.803143","7/23/25, 1:44 PM GMT+02:00",GPS Map Camera,ettienejvr@gmail.com,Captured
86,GZAZ0002.JPG,LAW-P-1085,"Lawley, Gauteng, South Africa","Lawley Road, Lawley Extento, Lawley, Gauteng 1830, South Africa",-26.391101,27.818744,"-26.391101, 27.818744","7/23/25, 12:54 PM GMT+02:00",GPS Map Camera,ettienejvr@gmail.com,Captured
87,GZZE1257.JPG,LAW-P-1086,"Lawley, Gauteng, South Africa","2nd Avenue, Elandsfontein, Lawley, Gauteng 1830, South Africa",-26.39347,27.812935,"-26.39347, 27.812935","7/23/25, 12:10 PM GMT+02:00",GPS Map Camera,ettienejvr@gmail.com,Captured
88,HEBR8966.JPG,LAW-P-1087,"Lawley, Gauteng, South Africa","3rd Avenue, Lawley, Lawley, Gauteng 1830, South Africa",-26.36086,27.813798,"-26.36086, 27.813798","7/23/25, 3:47 PM GMT+02:00",GPS Map Camera,ettienejvr@gmail.com,Captured
89,HFJW0466.JPG,LAW-P-1088,"Lawley, Gauteng, South Africa","Market Street, Lawley Extento, Lawley, Gauteng 1830, South Africa",-26.397413,27.803388,"-26.397413, 27.803388","7/23/25, 12:51 PM GMT+02:00",GPS Map Camera,ettienejvr@gmail.com,Captured
90,HJTK6524.JPG,LAW-P-1089,"Lawley, Gauteng, South Africa","Main Road, Elandsfontein, Lawley, Gauteng 1830, South Africa",-26.387909,27.807612,"-26.387909, 27.807612","7/23/25, 9:34 AM GMT+02:00",GPS Map Camera,ettienejvr@gmail.com,Captured
91,HNWT8378.JPG,LAW-P-1090,"Lawley, Gauteng, South Africa","Church Street, Lawley, Lawley, Gauteng 1830, South Africa",-26.396519,27.81452,"-26.396519, 27.81452","7/23/25, 9:18 AM GMT+02:00",GPS Map Camera,ettienejvr@gmail.com,Captured
92,HRHV1719.JPG,LAW-P-1091,"Lawley, Gauteng, South Africa","School Street, Lawley Extento, Lawley, Gauteng 1830, South Africa",-26.366972,27.811942,"-26.366972, 27.811942","7/23/25, 11:03 AM GMT+02:00",GPS Map Camera,ettienejvr@gmail.com,Captured
93,HXDI7619.JPG,LAW-P-1092,"Lawley, Gauteng, South Africa","Mandela Street, Elandsfontein, Lawley, Gauteng 1830, South Africa",-26.363906,27.817079,"-26.363906, 27.817079","7/23/25, 2:18 PM GMT+02:00",GPS Map Camera,ettienejvr@gmail.com,Captured
94,IHDN2384.JPG,LAW-P-1093,"Lawley, Gauteng, South Africa","Freedom Way, Lawley, Lawley, Gauteng 1830, South Africa",-26.366232,27.809409,"-26.366232, 27.809409","7/23/25, 9:47 AM GMT+02:00",GPS Map Camera,ettienejvr@gmail.com,Captured
95,IKNO0666.JPG,LAW-P-1094,"Lawley, Gauteng, South Africa","Unity Road, Lawley Extento, Lawley, Gauteng 1830, South Africa",-26.385955,27.800049,"-26.385955, 27.800049","7/23/25, 3:55 PM GMT+02:00",GPS Map Camera,ettienejvr@gmail.com,Captured
96,INYM6657.JPG,LAW-P-1095,"Lawley, Gauteng, South Africa","Hope Street, Elandsfontein, Lawley, Gauteng 1830, South Africa",-26.382968,27.802618,"-26.382968, 27.802618","7/23/25, 10:29 AM GMT+02:00",GPS Map Camera,ettienejvr@gmail.com,Captured
97,ITSN6013.JPG,LAW-P-1096,"Lawley, Gauteng, South Africa","Piranha Crescent, Lawley, Lawley, Gauteng 1830, South Africa",-26.367113,27.818885,"-26.367113, 27.818885","7/23/25, 10:12 AM GMT+02:00",GPS Map Camera,ettienejvr@gmail.com,Captured
98,IWTO6731.JPG,LAW-P-1097,"Lawley, Gauteng, South Africa","Lawley Road, Lawley Extento, Lawley, Gauteng 1830, South Africa",-26.362478,27.813301,"-26.362478, 27.813301","7/23/25, 9:23 AM GMT+02:00",GPS Map Camera,ettienejvr@gmail.com,Captured
99,IXQJ4199.JPG,LAW-P-1098,"Lawley, Gauteng, South Africa","2nd Avenue, Elandsfontein, Lawley, Gauteng 1830, South Africa",-26.396682,27.808378,"-26.396682, 27.808378","7/23/25, 11:27 AM GMT+02:00",GPS Map Camera,ettienejvr@gmail.com,Captured
100,JIUI4919.JPG,LAW-P-1099,"Lawley, Gauteng, South Africa","3rd Avenue, Lawley, Lawley, Gauteng 1830, South Africa",-26.374301,27.802986,"-26.374301, 27.802986","7/23/25, 12:44 PM GMT+02:00",GPS Map Camera,ettienejvr@gmail.com,Captured
101,JJBK8199.JPG,LAW-P-1100,"Lawley, Gauteng, South Africa","Market Street, Lawley Extento, Lawley, Gauteng 1830, South Africa",-26.389886,27.816645,"-26.389886, 27.816645","7/23/25, 12:29 PM GMT+02:00",GPS Map Camera,ettienejvr@gmail.com,Captured
102,JKEY8710.JPG,LAW-P-1101,"Lawley, Gauteng, South Africa","Main Road, Elandsfontein, Lawley, Gauteng 1830, South Africa",-26.385517,27.815018,"-26.385517, 27.815018","7/23/25, 11:11 AM GMT+02:00",GPS Map Camera,ettienejvr@gmail.com,Captured
103,JQYR2834.JPG,LAW-P-1102,"Lawley, Gauteng, South Africa","Church Street, Lawley, Lawley, Gauteng 1830, South Africa",-26.363571,27.816934,"-26.363571, 27.816934","7/23/25, 10:20 AM GMT+02:00",GPS Map Camera,ettienejvr@gmail.com,Captured
104,JSFY9917.JPG,LAW-P-1103,"Lawley, Gauteng, South Africa","School Street, Lawley Extento, Lawley, Gauteng 1830, South Africa",-26.362779,27.807418,"-26.362779, 27.807418","7/23/25, 3:58 PM GMT+02:00",GPS Map Camera,ettienejvr@gmail.com,Captured
105,JUBJ3863.JPG,LAW-P-1104,"Lawley, Gauteng, South Africa","Mandela Street, Elandsfontein, Lawley, Gauteng 1830, South Africa",-26.383481,27.812437,"-26.383481, 27.812437","7/23/25, 12:44 PM GMT+02:00",GPS Map Camera,ettienejvr@gmail.com,Captured
106,JUGV5500.JPG,LAW-P-1105,"Lawley, Gauteng, South Africa","Freedom Way, Lawley, Lawley, Gauteng 1830, South Africa",-26.388371,27.804215,"-26.388371, 27.804215","7/23/25, 8:10 AM GMT+02:00",GPS Map Camera,ettienejvr@gmail.com,Captured
107,JVEI9420.JPG,LAW-P-1106,"Lawley, Gauteng, South Africa","Unity Road, Lawley Extento, Lawley, Gauteng 1830, South Africa",-26.368396,27.806939,"-26.368396, 27.806939","7/23/25, 12:53 PM GMT+02:00",GPS Map Camera,ettienejvr@gmail.com,Captured
108,JVZY2095.JPG,LAW-P-1107,"Lawley, Gauteng, South Africa","Hope Street, Elandsfontein, Lawley, Gauteng 1830, South Africa",-26.384098,27.816119,"-26.384098, 27.816119","7/23/25, 1:47 PM GMT+02:00",GPS Map Camera,ettienejvr@gmail.com,Captured
109,JWBW3753.JPG,LAW-P-1108,"Lawley, Gauteng, South Africa","Piranha Crescent, Lawley, Lawley, Gauteng 1830, South Africa",-26.363014,27.814519,"-26.363014, 27.814519","7/23/25, 12:11 PM GMT+02:00",GPS Map Camera,ettienejvr@gmail.com,Captured
110,JWGZ7542.JPG,LAW-P-1109,"Lawley, Gauteng, South Africa","Lawley Road, Lawley Extento, Lawley, Gauteng 1830, South Africa",-26.372993,27.813698,"-26.372993, 27.813698","7/23/25, 10:51 AM GMT+02:00",GPS Map Camera,ettienejvr@gmail.com,Captured
111,JWJO4732.JPG,LAW-P-1110,"Lawley, Gauteng, South Africa","2nd Avenue, Elandsfontein, Lawley, Gauteng 1830, South Africa",-26.37177,27.806398,"-26.37177, 27.806398","7/23/25, 10:30 AM GMT+02:00",GPS Map Camera,ettienejvr@gmail.com,Captured
112,JXDE5450.JPG,LAW-P-1111,"Lawley, Gauteng, South Africa","3rd Avenue, Lawley, Lawley, Gauteng 1830, South Africa",-26.372638,27.813999,"-26.372638, 27.813999","7/23/25, 2:19 PM GMT+02:00",GPS Map Camera,ettienejvr@gmail.com,Captured
113,JYNV5321.JPG,LAW-P-1112,"Lawley, Gauteng, South Africa","Market Street, Lawley Extento, Lawley, Gauteng 1830, South Africa",-26.370478,27.803407,"-26.370478, 27.803407","7/23/25, 2:20 PM GMT+02:00",GPS Map Camera,ettienejvr@gmail.com,Captured
114,KCKK0959.JPG,LAW-P-1113,"Lawley, Gauteng, South Africa","Main Road, Elandsfontein, Lawley, Gauteng 1830, South Africa",-26.367077,27.807396,"-26.367077, 27.807396","7/23/25, 10:35 AM GMT+02:00",GPS Map Camera,ettienejvr@gmail.com,Captured
115,KCXA7871.JPG,LAW-P-1114,"Lawley, Gauteng, South Africa","Church Street, Lawley, Lawley, Gauteng 1830, South Africa",-26.392776,27.806543,"-26.392776, 27.806543","7/23/25, 9:43 AM GMT+02:00",GPS Map Camera,ettienejvr@gmail.com,Captured
116,KFYR6665.JPG,LAW-P-1115,"Lawley, Gauteng, South Africa","School Street, Lawley Extento, Lawley, Gauteng 1830, South Africa",-26.365329,27.807756,"-26.365329, 27.807756","7/23/25, 3:24 PM GMT+02:00",GPS Map Camera,ettienejvr@gmail.com,Captured
117,KGCJ1211.JPG,LAW-P-1116,"Lawley, Gauteng, South Africa","Mandela Street, Elandsfontein, Lawley, Gauteng 1830, South Africa",-26.378758,27.80681,"-26.378758, 27.80681","7/23/25, 2:38 PM GMT+02:00",GPS Map Camera,ettienejvr@gmail.com,Captured
118,KLDO0620.JPG,LAW-P-1117,"Lawley, Gauteng, South Africa","Freedom Way, Lawley, Lawley, Gauteng 1830, South Africa",-26.377842,27.813644,"-26.377842, 27.813644","7/23/25, 10:50 AM GMT+02:00",GPS Map Camera,ettienejvr@gmail.com,Captured
119,KLUE5207.JPG,LAW-P-1118,"Lawley, Gauteng, South Africa","Unity Road, Lawley Extento, Lawley, Gauteng 1830, South Africa",-26.361408,27.810216,"-26.361408, 27.810216","7/23/25, 11:16 AM GMT+02:00",GPS Map Camera,ettienejvr@gmail.com,Captured
120,KQKK4522.JPG,LAW-P-1119,"Lawley, Gauteng, South Africa","Hope Street, Elandsfontein, Lawley, Gauteng 1830, South Africa",-26.371219,27.801548,"-26.371219, 27.801548","7/23/25, 12:31 PM GMT+02:00",GPS Map Camera,ettienejvr@gmail.com,Captured
121,KRAU3608.JPG,LAW-P-1120,"Lawley, Gauteng, South Africa","Piranha Crescent, Lawley, Lawley, Gauteng 1830, South Africa",-26.397681,27.81151,"-26.397681, 27.81151","7/23/25, 11:50 AM GMT+02:00",GPS Map Camera,ettienejvr@gmail.com,Captured
122,KRDH4855.JPG,LAW-P-1121,"Lawley, Gauteng, South Africa","Lawley Road, Lawley Extento, Lawley, Gauteng 1830, South Africa",-26.381661,27.805449,"-26.381661, 27.805449","7/23/25, 2:36 PM GMT+02:00",GPS Map Camera,ettienejvr@gmail.com,Captured
123,KSGK5207.JPG,LAW-P-1122,"Lawley, Gauteng, South Africa","2nd Avenue, Elandsfontein, Lawley, Gauteng 1830, South Africa",-26.394869,27.805517,"-26.394869, 27.805517","7/23/25, 1:23 PM GMT+02:00",GPS Map Camera,ettienejvr@gmail.com,Captured
124,KSZA3267.JPG,LAW-P-1123,"Lawley, Gauteng, South Africa","3rd Avenue, Lawley, Lawley, Gauteng 1830, South Africa",-26.380115,27.810795,"-26.380115, 27.810795","7/23/25, 12:06 PM GMT+02:00",GPS Map Camera,ettienejvr@gmail.com,Captured
125,KUDQ9215.JPG,LAW-P-1124,"Lawley, Gauteng, South Africa","Market Street, Lawley Extento, Lawley, Gauteng 1830, South Africa",-26.38993,27.819482,"-26.38993, 27.819482","7/23/25, 9:34 AM GMT+02:00",GPS Map Camera,ettienejvr@gmail.com,Captured
126,LAMD3284.JPG,LAW-P-1125,"Lawley, Gauteng, South Africa","Main Road, Elandsfontein, Lawley, Gauteng 1830, South Africa",-26.368584,27.817423,"-26.368584, 27.817423","7/23/25, 9:20 AM GMT+02:00",GPS Map Camera,ettienejvr@gmail.com,Captured
127,LBBM2217.JPG,LAW-P-1126,"Lawley, Gauteng, South Africa","Church Street, Lawley, Lawley, Gauteng 1830, South Africa",-26.371522,27.804785,"-26.371522, 27.804785","7/23/25, 8:55 AM GMT+02:00",GPS Map Camera,ettienejvr@gmail.com,Captured
128,LDWE5504.JPG,LAW-P-1127,"Lawley, Gauteng, South Africa","School Street, Lawley Extento, Lawley, Gauteng 1830, South Africa",-26.386528,27.804896,"-26.386528, 27.804896","7/23/25, 8:34 AM GMT+02:00",GPS Map Camera,ettienejvr@gmail.com,Captured
129,LEFU9103.JPG,LAW-P-1128,"Lawley, Gauteng, South Africa","Piranha Crescent, Elandsfontein, Lawley, Gauteng 1830, South Africa",-26.39649,27.813118,"-26.39649, 27.813118",07/23/2025 11:22 AM GMT+02:00,GPS Map Camera,ettienejvr@gmail.com,Captured
130,LEQB9539.JPG,LAW-P-1129,"Lawley, Gauteng, South Africa","Freedom Way, Lawley, Lawley, Gauteng 1830, South Africa",-26.395077,27.817632,"-26.395077, 27.817632","7/23/25, 9:11 AM GMT+02:00",GPS Map Camera,ettienejvr@gmail.com,Captured
131,LLDF1597.JPG,LAW-P-1130,"Lawley, Gauteng, South Africa","Unity Road, Lawley Extento, Lawley, Gauteng 1830, South Africa",-26.364515,27.810945,"-26.364515, 27.810945","7/23/25, 12:56 PM GMT+02:00",GPS Map Camera,ettienejvr@gmail.com,Captured
132,LPAD7111.JPG,LAW-P-1131,"Lawley, Gauteng, South Africa","Hope Street, Elandsfontein, Lawley, Gauteng 1830, South Africa",-26.376121,27.805749,"-26.376121, 27.805749","7/23/25, 10:30 AM GMT+02:00",GPS Map Camera,ettienejvr@gmail.com,Captured
133,LPIC8864.JPG,LAW-P-1132,"Lawley, Gauteng, South Africa","Piranha Crescent, Lawley, Lawley, Gauteng 1830, South Africa",-26.381864,27.814384,"-26.381864, 27.814384","7/23/25, 10:52 AM GMT+02:00",GPS Map Camera,ettienejvr@gmail.com,Captured
134,LQKO5148.JPG,LAW-P-1133,"Lawley, Gauteng, South Africa","Lawley Road, Lawley Extento, Lawley, Gauteng 1830, South Africa",-26.370655,27.819531,"-26.370655, 27.819531","7/23/25, 11:18 AM GMT+02:00",GPS Map Camera,ettienejvr@gmail.com,Captured
135,LQZU0957.JPG,LAW-P-1134,"Lawley, Gauteng, South Africa","2nd Avenue, Elandsfontein, Lawley, Gauteng 1830, South Africa",-26.368095,27.811484,"-26.368095, 27.811484","7/23/25, 1:34 PM GMT+02:00",GPS Map Camera,ettienejvr@gmail.com,Captured
136,LRUC4371.JPG,LAW-P-1135,"Lawley, Gauteng, South Africa","3rd Avenue, Lawley, Lawley, Gauteng 1830, South Africa",-26.383724,27.8003,"-26.383724, 27.8003","7/23/25, 10:02 AM GMT+02:00",GPS Map Camera,ettienejvr@gmail.com,Captured
137,LRWE3363.JPG,LAW-P-1136,"Lawley, Gauteng, South Africa","Market Street, Lawley Extento, Lawley, Gauteng 1830, South Africa",-26.377454,27.810507,"-26.377454, 27.810507","7/23/25, 12:41 PM GMT+02:00",GPS Map Camera,ettienejvr@gmail.com,Captured
138,LTDX9851.JPG,LAW-P-1137,"Lawley, Gauteng, South Africa","Main Road, Elandsfontein, Lawley, Gauteng 1830, South Africa",-26.387229,27.819794,"-26.387229, 27.819794","7/23/25, 10:32 AM GMT+02:00",GPS Map Camera,ettienejvr@gmail.com,Captured
139,LTZI0059.JPG,LAW-P-1138,"Lawley, Gauteng, South Africa","Church Street, Lawley, Lawley, Gauteng 1830, South Africa",-26.378899,27.813186,"-26.378899, 27.813186","7/23/25, 12:12 PM GMT+02:00",GPS Map Camera,ettienejvr@gmail.com,Captured
140,LWVL1065.JPG,LAW-P-1139,"Lawley, Gauteng, South Africa","School Street, Lawley Extento, Lawley, Gauteng 1830, South Africa",-26.390683,27.813552,"-26.390683, 27.813552","7/23/25, 12:21 PM GMT+02:00",GPS Map Camera,ettienejvr@gmail.com,Captured
141,LWZP8195.JPG,LAW-P-1140,"Lawley, Gauteng, South Africa","Mandela Street, Elandsfontein, Lawley, Gauteng 1830, South Africa",-26.365708,27.804562,"-26.365708, 27.804562","7/23/25, 1:53 PM GMT+02:00",GPS Map Camera,ettienejvr@gmail.com,Captured
142,MAFW4938.JPG,LAW-P-1141,"Lawley, Gauteng, South Africa","Freedom Way, Lawley, Lawley, Gauteng 1830, South Africa",-26.360382,27.818875,"-26.360382, 27.818875","7/23/25, 3:56 PM GMT+02:00",GPS Map Camera,ettienejvr@gmail.com,Captured
143,MAQJ2478.JPG,LAW-P-1142,"Lawley, Gauteng, South Africa","Unity Road, Lawley Extento, Lawley, Gauteng 1830, South Africa",-26.376889,27.815823,"-26.376889, 27.815823","7/23/25, 12:23 PM GMT+02:00",GPS Map Camera,ettienejvr@gmail.com,Captured
144,MBGP6121.JPG,LAW-P-1143,"Lawley, Gauteng, South Africa","Hope Street, Elandsfontein, Lawley, Gauteng 1830, South Africa",-26.386889,27.80876,"-26.386889, 27.80876","7/23/25, 10:50 AM GMT+02:00",GPS Map Camera,ettienejvr@gmail.com,Captured
145,METX0463.JPG,LAW-P-1144,"Lawley, Gauteng, South Africa","Piranha Crescent, Lawley, Lawley, Gauteng 1830, South Africa",-26.371012,27.813004,"-26.371012, 27.813004","7/23/25, 11:08 AM GMT+02:00",GPS Map Camera,ettienejvr@gmail.com,Captured
146,MJKL9606.JPG,LAW-P-1145,"Lawley, Gauteng, South Africa","Lawley Road, Lawley Extento, Lawley, Gauteng 1830, South Africa",-26.374122,27.814726,"-26.374122, 27.814726","7/23/25, 2:59 PM GMT+02:00",GPS Map Camera,ettienejvr@gmail.com,Captured
147,MMJE6410.JPG,LAW-P-1146,"Lawley, Gauteng, South Africa","2nd Avenue, Elandsfontein, Lawley, Gauteng 1830, South Africa",-26.382776,27.805272,"-26.382776, 27.805272","7/23/25, 8:53 AM GMT+02:00",GPS Map Camera,ettienejvr@gmail.com,Captured
148,MQJO4808.JPG,LAW-P-1147,"Lawley, Gauteng, South Africa","3rd Avenue, Lawley, Lawley, Gauteng 1830, South Africa",-26.369105,27.803961,"-26.369105, 27.803961","7/23/25, 10:33 AM GMT+02:00",GPS Map Camera,ettienejvr@gmail.com,Captured
149,MSHD1100.JPG,LAW-P-1148,"Lawley, Gauteng, South Africa","Market Street, Lawley Extento, Lawley, Gauteng 1830, South Africa",-26.384711,27.803888,"-26.384711, 27.803888","7/23/25, 9:14 AM GMT+02:00",GPS Map Camera,ettienejvr@gmail.com,Captured
150,MUVG4780.JPG,LAW-P-1149,"Lawley, Gauteng, South Africa","Main Road, Elandsfontein, Lawley, Gauteng 1830, South Africa",-26.391093,27.808157,"-26.391093, 27.808157","7/23/25, 12:13 PM GMT+02:00",GPS Map Camera,ettienejvr@gmail.com,Captured
151,MVDD5001.JPG,LAW-P-1150,"Lawley, Gauteng, South Africa","Church Street, Lawley, Lawley, Gauteng 1830, South Africa",-26.388377,27.807318,"-26.388377, 27.807318","7/23/25, 12:15 PM GMT+02:00",GPS Map Camera,ettienejvr@gmail.com,Captured
152,NBKS9554.JPG,LAW-P-1151,"Lawley, Gauteng, South Africa","School Street, Lawley Extento, Lawley, Gauteng 1830, South Africa",-26.365049,27.810186,"-26.365049, 27.810186","7/23/25, 11:12 AM GMT+02:00",GPS Map Camera,ettienejvr@gmail.com,Captured
153,NFPG0936.JPG,LAW-P-1152,"Lawley, Gauteng, South Africa","Mandela Street, Elandsfontein, Lawley, Gauteng 1830, South Africa",-26.379791,27.806203,"-26.379791, 27.806203","7/23/25, 3:11 PM GMT+02:00",GPS Map Camera,ettienejvr@gmail.com,Captured
154,NFTY2403.JPG,LAW-P-1153,"Lawley, Gauteng, South Africa","Freedom Way, Lawley, Lawley, Gauteng 1830, South Africa",-26.37171,27.808414,"-26.37171, 27.808414","7/23/25, 2:22 PM GMT+02:00",GPS Map Camera,ettienejvr@gmail.com,Captured
155,NHET7589.JPG,LAW-P-1154,"Lawley, Gauteng, South Africa","Unity Road, Lawley Extento, Lawley, Gauteng 1830, South Africa",-26.393275,27.804343,"-26.393275, 27.804343","7/23/25, 8:09 AM GMT+02:00",GPS Map Camera,ettienejvr@gmail.com,Captured
156,NMDI1270.JPG,LAW-P-1155,"Lawley, Gauteng, South Africa","Hope Street, Elandsfontein, Lawley, Gauteng 1830, South Africa",-26.367704,27.81652,"-26.367704, 27.81652","7/23/25, 1:01 PM GMT+02:00",GPS Map Camera,ettienejvr@gmail.com,Captured
157,OCZK0771.JPG,LAW-P-1156,"Lawley, Gauteng, South Africa","Piranha Crescent, Lawley, Lawley, Gauteng 1830, South Africa",-26.392692,27.814442,"-26.392692, 27.814442","7/23/25, 8:42 AM GMT+02:00",GPS Map Camera,ettienejvr@gmail.com,Captured
158,OFDO0961.JPG,LAW-P-1157,"Lawley, Gauteng, South Africa","Lawley Road, Lawley Extento, Lawley, Gauteng 1830, South Africa",-26.390427,27.817,"-26.390427, 27.817","7/23/25, 11:24 AM GMT+02:00",GPS Map Camera,ettienejvr@gmail.com,Captured
159,OFVD9641.JPG,LAW-P-1158,"Lawley, Gauteng, South Africa","2nd Avenue, Elandsfontein, Lawley, Gauteng 1830, South Africa",-26.39482,27.807122,"-26.39482, 27.807122","7/23/25, 1:35 PM GMT+02:00",GPS Map Camera,ettienejvr@gmail.com,Captured
160,OGKR5607.JPG,LAW-P-1159,"Lawley, Gauteng, South Africa","3rd Avenue, Lawley, Lawley, Gauteng 1830, South Africa",-26.383263,27.815302,"-26.383263, 27.815302","7/23/25, 11:50 AM GMT+02:00",GPS Map Camera,ettienejvr@gmail.com,Captured
161,OJCP7199.JPG,LAW-P-1160,"Lawley, Gauteng, South Africa","Market Street, Lawley Extento, Lawley, Gauteng 1830, South Africa",-26.396969,27.817813,"-26.396969, 27.817813","7/23/25, 11:27 AM GMT+02:00",GPS Map Camera,ettienejvr@gmail.com,Captured
162,OLWW2289.JPG,LAW-P-1161,"Lawley, Gauteng, South Africa","Main Road, Elandsfontein, Lawley, Gauteng 1830, South Africa",-26.365763,27.802265,"-26.365763, 27.802265","7/23/25, 10:23 AM GMT+02:00",GPS Map Camera,ettienejvr@gmail.com,Captured
163,OOAS4702.JPG,LAW-P-1162,"Lawley, Gauteng, South Africa","Church Street, Lawley, Lawley, Gauteng 1830, South Africa",-26.374025,27.800207,"-26.374025, 27.800207","7/23/25, 12:27 PM GMT+02:00",GPS Map Camera,ettienejvr@gmail.com,Captured
164,OORX2011.JPG,LAW-P-1163,"Lawley, Gauteng, South Africa","School Street, Lawley Extento, Lawley, Gauteng 1830, South Africa",-26.376005,27.808954,"-26.376005, 27.808954","7/23/25, 2:53 PM GMT+02:00",GPS Map Camera,ettienejvr@gmail.com,Captured
165,OPCL9647.JPG,LAW-P-1164,"Lawley, Gauteng, South Africa","Mandela Street, Elandsfontein, Lawley, Gauteng 1830, South Africa",-26.363611,27.814161,"-26.363611, 27.814161","7/23/25, 12:08 PM GMT+02:00",GPS Map Camera,ettienejvr@gmail.com,Captured
166,OQQK0399.JPG,LAW-P-1165,"Lawley, Gauteng, South Africa","Freedom Way, Lawley, Lawley, Gauteng 1830, South Africa",-26.397741,27.816166,"-26.397741, 27.816166","7/23/25, 12:11 PM GMT+02:00",GPS Map Camera,ettienejvr@gmail.com,Captured
167,ORAY5913.JPG,LAW-P-1166,"Lawley, Gauteng, South Africa","Unity Road, Lawley Extento, Lawley, Gauteng 1830, South Africa",-26.384588,27.803913,"-26.384588, 27.803913","7/23/25, 11:11 AM GMT+02:00",GPS Map Camera,ettienejvr@gmail.com,Captured
168,OSYM6192.JPG,LAW-P-1167,"Lawley, Gauteng, South Africa","Hope Street, Elandsfontein, Lawley, Gauteng 1830, South Africa",-26.394715,27.817806,"-26.394715, 27.817806","7/23/25, 1:26 PM GMT+02:00",GPS Map Camera,ettienejvr@gmail.com,Captured
169,OYGM8276.JPG,LAW-P-1168,"Lawley, Gauteng, South Africa","Piranha Crescent, Lawley, Lawley, Gauteng 1830, South Africa",-26.382886,27.80098,"-26.382886, 27.80098","7/23/25, 10:25 AM GMT+02:00",GPS Map Camera,ettienejvr@gmail.com,Captured
170,OYQU1252.JPG,LAW-P-1169,"Lawley, Gauteng, South Africa","Lawley Road, Lawley Extento, Lawley, Gauteng 1830, South Africa",-26.369393,27.818833,"-26.369393, 27.818833","7/23/25, 10:31 AM GMT+02:00",GPS Map Camera,ettienejvr@gmail.com,Captured
171,PFTC5891.JPG,LAW-P-1170,"Lawley, Gauteng, South Africa","2nd Avenue, Elandsfontein, Lawley, Gauteng 1830, South Africa",-26.387623,27.8011,"-26.387623, 27.8011","7/23/25, 12:31 PM GMT+02:00",GPS Map Camera,ettienejvr@gmail.com,Captured
172,PFZK4298.JPG,LAW-P-1171,"Lawley, Gauteng, South Africa","3rd Avenue, Lawley, Lawley, Gauteng 1830, South Africa",-26.376179,27.809831,"-26.376179, 27.809831","7/23/25, 11:29 AM GMT+02:00",GPS Map Camera,ettienejvr@gmail.com,Captured
173,PHLQ5468.JPG,LAW-P-1172,"Lawley, Gauteng, South Africa","Market Street, Lawley Extento, Lawley, Gauteng 1830, South Africa",-26.37209,27.802882,"-26.37209, 27.802882","7/23/25, 8:11 AM GMT+02:00",GPS Map Camera,ettienejvr@gmail.com,Captured
174,PKSM5427.JPG,LAW-P-1173,"Lawley, Gauteng, South Africa","Main Road, Elandsfontein, Lawley, Gauteng 1830, South Africa",-26.387716,27.80865,"-26.387716, 27.80865","7/23/25, 8:23 AM GMT+02:00",GPS Map Camera,ettienejvr@gmail.com,Captured
175,PMOI0570.JPG,LAW-P-1174,"Lawley, Gauteng, South Africa","Church Street, Lawley, Lawley, Gauteng 1830, South Africa",-26.360856,27.810776,"-26.360856, 27.810776","7/23/25, 12:40 PM GMT+02:00",GPS Map Camera,ettienejvr@gmail.com,Captured
176,POKR1584.JPG,LAW-P-1175,"Lawley, Gauteng, South Africa","School Street, Lawley Extento, Lawley, Gauteng 1830, South Africa",-26.393947,27.806108,"-26.393947, 27.806108","7/23/25, 12:24 PM GMT+02:00",GPS Map Camera,ettienejvr@gmail.com,Captured
177,PVFU5787.JPG,LAW-P-1176,"Lawley, Gauteng, South Africa","Mandela Street, Elandsfontein, Lawley, Gauteng 1830, South Africa",-26.393812,27.819997,"-26.393812, 27.819997","7/23/25, 1:08 PM GMT+02:00",GPS Map Camera,ettienejvr@gmail.com,Captured
178,PXFC6466.JPG,LAW-P-1177,"Lawley, Gauteng, South Africa","Freedom Way, Lawley, Lawley, Gauteng 1830, South Africa",-26.37382,27.810241,"-26.37382, 27.810241","7/23/25, 9:45 AM GMT+02:00",GPS Map Camera,ettienejvr@gmail.com,Captured
179,PXMG6451.JPG,LAW-P-1178,"Lawley, Gauteng, South Africa","Unity Road, Lawley Extento, Lawley, Gauteng 1830, South Africa",-26.384638,27.81822,"-26.384638, 27.81822","7/23/25, 11:14 AM GMT+02:00",GPS Map Camera,ettienejvr@gmail.com,Captured
180,PZLP3988.JPG,LAW-P-1179,"Lawley, Gauteng, South Africa","Hope Street, Elandsfontein, Lawley, Gauteng 1830, South Africa",-26.360412,27.804464,"-26.360412, 27.804464","7/23/25, 12:47 PM GMT+02:00",GPS Map Camera,ettienejvr@gmail.com,Captured
181,PZLP6531.JPG,LAW-P-1180,"Lawley, Gauteng, South Africa","Piranha Crescent, Lawley, Lawley, Gauteng 1830, South Africa",-26.395483,27.810583,"-26.395483, 27.810583","7/23/25, 11:42 AM GMT+02:00",GPS Map Camera,ettienejvr@gmail.com,Captured
182,QEMR7804.JPG,LAW-P-1181,"Lawley, Gauteng, South Africa","Lawley Road, Lawley Extento, Lawley, Gauteng 1830, South Africa",-26.361082,27.816335,"-26.361082, 27.816335","7/23/25, 2:31 PM GMT+02:00",GPS Map Camera,ettienejvr@gmail.com,Captured
183,QGPN5995.JPG,LAW-P-1182,"Lawley, Gauteng, South Africa","2nd Avenue, Elandsfontein, Lawley, Gauteng 1830, South Africa",-26.390939,27.803824,"-26.390939, 27.803824","7/23/25, 10:24 AM GMT+02:00",GPS Map Camera,ettienejvr@gmail.com,Captured
184,QHDL4382.JPG,LAW-P-1183,"Lawley, Gauteng, South Africa","3rd Avenue, Lawley, Lawley, Gauteng 1830, South Africa",-26.374254,27.804751,"-26.374254, 27.804751","7/23/25, 1:28 PM GMT+02:00",GPS Map Camera,ettienejvr@gmail.com,Captured
185,QHJV5587.JPG,LAW-P-1184,"Lawley, Gauteng, South Africa","Market Street, Lawley Extento, Lawley, Gauteng 1830, South Africa",-26.373249,27.81815,"-26.373249, 27.81815","7/23/25, 11:46 AM GMT+02:00",GPS Map Camera,ettienejvr@gmail.com,Captured
186,QIZR3203.JPG,LAW-P-1185,"Lawley, Gauteng, South Africa","Main Road, Elandsfontein, Lawley, Gauteng 1830, South Africa",-26.377541,27.804976,"-26.377541, 27.804976","7/23/25, 3:08 PM GMT+02:00",GPS Map Camera,ettienejvr@gmail.com,Captured
187,QKAI8572.JPG,LAW-P-1186,"Lawley, Gauteng, South Africa","Church Street, Lawley, Lawley, Gauteng 1830, South Africa",-26.390093,27.810408,"-26.390093, 27.810408","7/23/25, 11:17 AM GMT+02:00",GPS Map Camera,ettienejvr@gmail.com,Captured
188,QKJM0615.JPG,LAW-P-1187,"Lawley, Gauteng, South Africa","School Street, Lawley Extento, Lawley, Gauteng 1830, South Africa",-26.397015,27.806932,"-26.397015, 27.806932","7/23/25, 8:59 AM GMT+02:00",GPS Map Camera,ettienejvr@gmail.com,Captured
189,QLOR1783.JPG,LAW-P-1188,"Lawley, Gauteng, South Africa","Mandela Street, Elandsfontein, Lawley, Gauteng 1830, South Africa",-26.389121,27.808591,"-26.389121, 27.808591","7/23/25, 3:32 PM GMT+02:00",GPS Map Camera,ettienejvr@gmail.com,Captured
190,QLZS2207.JPG,LAW-P-1189,"Lawley, Gauteng, South Africa","Freedom Way, Lawley, Lawley, Gauteng 1830, South Africa",-26.369853,27.81117,"-26.369853, 27.81117","7/23/25, 9:42 AM GMT+02:00",GPS Map Camera,ettienejvr@gmail.com,Captured
191,QNAM7574.JPG,LAW-P-1190,"Lawley, Gauteng, South Africa","Unity Road, Lawley Extento, Lawley, Gauteng 1830, South Africa",-26.386919,27.816109,"-26.386919, 27.816109","7/23/25, 1:19 PM GMT+02:00",GPS Map Camera,ettienejvr@gmail.com,Captured
192,QNTU5037.JPG,LAW-P-1191,"Lawley, Gauteng, South Africa","Hope Street, Elandsfontein, Lawley, Gauteng 1830, South Africa",-26.391079,27.814432,"-26.391079, 27.814432","7/23/25, 12:26 PM GMT+02:00",GPS Map Camera,ettienejvr@gmail.com,Captured
193,QOCQ6232.JPG,LAW-P-1192,"Lawley, Gauteng, South Africa","Piranha Crescent, Lawley, Lawley, Gauteng 1830, South Africa",-26.38101,27.813847,"-26.38101, 27.813847","7/23/25, 11:57 AM GMT+02:00",GPS Map Camera,ettienejvr@gmail.com,Captured
194,QPVF6496.JPG,LAW-P-1193,"Lawley, Gauteng, South Africa","Lawley Road, Lawley Extento, Lawley, Gauteng 1830, South Africa",-26.364141,27.805805,"-26.364141, 27.805805","7/23/25, 9:18 AM GMT+02:00",GPS Map Camera,ettienejvr@gmail.com,Captured
195,QRIQ8238.JPG,LAW-P-1194,"Lawley, Gauteng, South Africa","2nd Avenue, Elandsfontein, Lawley, Gauteng 1830, South Africa",-26.386955,27.800546,"-26.386955, 27.800546","7/23/25, 8:07 AM GMT+02:00",GPS Map Camera,ettienejvr@gmail.com,Captured
196,QTFA6097.JPG,LAW-P-1195,"Lawley, Gauteng, South Africa","3rd Avenue, Lawley, Lawley, Gauteng 1830, South Africa",-26.382431,27.808501,"-26.382431, 27.808501","7/23/25, 12:56 PM GMT+02:00",GPS Map Camera,ettienejvr@gmail.com,Captured
197,QXXU4985.JPG,LAW-P-1196,"Lawley, Gauteng, South Africa","Market Street, Lawley Extento, Lawley, Gauteng 1830, South Africa",-26.37493,27.808811,"-26.37493, 27.808811","7/23/25, 12:36 PM GMT+02:00",GPS Map Camera,ettienejvr@gmail.com,Captured
198,RKGE6317.JPG,LAW-P-1197,"Lawley, Gauteng, South Africa","Main Road, Elandsfontein, Lawley, Gauteng 1830, South Africa",-26.379273,27.800707,"-26.379273, 27.800707","7/23/25, 12:21 PM GMT+02:00",GPS Map Camera,ettienejvr@gmail.com,Captured
199,RPBJ6661.JPG,LAW-P-1198,"Lawley, Gauteng, South Africa","Church Street, Lawley, Lawley, Gauteng 1830, South Africa",-26.388318,27.804832,"-26.388318, 27.804832","7/23/25, 1:57 PM GMT+02:00",GPS Map Camera,ettienejvr@gmail.com,Captured
200,RPRQ0671.JPG,LAW-P-1199,"Lawley, Gauteng, South Africa","School Street, Lawley Extento, Lawley, Gauteng 1830, South Africa",-26.371525,27.81041,"-26.371525, 27.81041","7/23/25, 3:50 PM GMT+02:00",GPS Map Camera,ettienejvr@gmail.com,Captured
201,RQBM3981.JPG,LAW-P-1200,"Lawley, Gauteng, South Africa","Mandela Street, Elandsfontein, Lawley, Gauteng 1830, South Africa",-26.381142,27.801183,"-26.381142, 27.801183","7/23/25, 8:14 AM GMT+02:00",GPS Map Camera,ettienejvr@gmail.com,Captured
202,RSIP4254.JPG,LAW-P-1201,"Lawley, Gauteng, South Africa","Freedom Way, Lawley, Lawley, Gauteng 1830, South Africa",-26.379765,27.812831,"-26.379765, 27.812831","7/23/25, 11:39 AM GMT+02:00",GPS Map Camera,ettienejvr@gmail.com,Captured
203,RSSU1982.JPG,LAW-P-1202,"Lawley, Gauteng, South Africa","Unity Road, Lawley Extento, Lawley, Gauteng 1830, South Africa",-26.363355,27.804356,"-26.363355, 27.804356","7/23/25, 2:01 PM GMT+02:00",GPS Map Camera,ettienejvr@gmail.com,Captured
204,RUCW4375.JPG,LAW-P-1203,"Lawley, Gauteng, South Africa","Hope Street, Elandsfontein, Lawley, Gauteng 1830, South Africa",-26.389769,27.818301,"-26.389769, 27.818301","7/23/25, 8:25 AM GMT+02:00",GPS Map Camera,ettienejvr@gmail.com,Captured
205,RZNL7669.JPG,LAW-P-1204,"Lawley, Gauteng, South Africa","Piranha Crescent, Lawley, Lawley, Gauteng 1830, South Africa",-26.368723,27.819932,"-26.368723, 27.819932","7/23/25, 8:05 AM GMT+02:00",GPS Map Camera,ettienejvr@gmail.com,Captured
206,RZPZ1249.JPG,LAW-P-1205,"Lawley, Gauteng, South Africa","Lawley Road, Lawley Extento, Lawley, Gauteng 1830, South Africa",-26.387772,27.801539,"-26.387772, 27.801539","7/23/25, 3:30 PM GMT+02:00",GPS Map Camera,ettienejvr@gmail.com,Captured
207,RZUQ0882.JPG,LAW-P-1206,"Lawley, Gauteng, South Africa","2nd Avenue, Elandsfontein, Lawley, Gauteng 1830, South Africa",-26.375231,27.819539,"-26.375231, 27.819539","7/23/25, 9:52 AM GMT+02:00",GPS Map Camera,ettienejvr@gmail.com,Captured
208,SCAV0268.JPG,LAW-P-1207,"Lawley, Gauteng, South Africa","3rd Avenue, Lawley, Lawley, Gauteng 1830, South Africa",-26.397655,27.805206,"-26.397655, 27.805206","7/23/25, 12:02 PM GMT+02:00",GPS Map Camera,ettienejvr@gmail.com,Captured
209,SCPC2411.JPG,LAW-P-1208,"Lawley, Gauteng, South Africa","Market Street, Lawley Extento, Lawley, Gauteng 1830, South Africa",-26.389246,27.800715,"-26.389246, 27.800715","7/23/25, 8:31 AM GMT+02:00",GPS Map Camera,ettienejvr@gmail.com,Captured
210,SDRO4407.JPG,LAW-P-1209,"Lawley, Gauteng, South Africa","Main Road, Elandsfontein, Lawley, Gauteng 1830, South Africa",-26.393872,27.805387,"-26.393872, 27.805387","7/23/25, 10:16 AM GMT+02:00",GPS Map Camera,ettienejvr@gmail.com,Captured
211,SFKU5869.JPG,LAW-P-1210,"Lawley, Gauteng, South Africa","Church Street, Lawley, Lawley, Gauteng 1830, South Africa",-26.382135,27.804614,"-26.382135, 27.804614","7/23/25, 1:16 PM GMT+02:00",GPS Map Camera,ettienejvr@gmail.com,Captured
212,SGGW4400.JPG,LAW-P-1211,"Lawley, Gauteng, South Africa","School Street, Lawley Extento, Lawley, Gauteng 1830, South Africa",-26.387023,27.802832,"-26.387023, 27.802832","7/23/25, 9:52 AM GMT+02:00",GPS Map Camera,ettienejvr@gmail.com,Captured
213,SGOP2396.JPG,LAW-P-1212,"Lawley, Gauteng, South Africa","Mandela Street, Elandsfontein, Lawley, Gauteng 1830, South Africa",-26.372806,27.800677,"-26.372806, 27.800677","7/23/25, 1:42 PM GMT+02:00",GPS Map Camera,ettienejvr@gmail.com,Captured
214,SLTS7367.JPG,LAW-P-1213,"Lawley, Gauteng, South Africa","Freedom Way, Lawley, Lawley, Gauteng 1830, South Africa",-26.381067,27.800962,"-26.381067, 27.800962","7/23/25, 9:08 AM GMT+02:00",GPS Map Camera,ettienejvr@gmail.com,Captured
215,SNZB2490.JPG,LAW-P-1214,"Lawley, Gauteng, South Africa","Unity Road, Lawley Extento, Lawley, Gauteng 1830, South Africa",-26.394638,27.808344,"-26.394638, 27.808344","7/23/25, 10:38 AM GMT+02:00",GPS Map Camera,ettienejvr@gmail.com,Captured
216,SOHQ6720.JPG,LAW-P-1215,"Lawley, Gauteng, South Africa","Hope Street, Elandsfontein, Lawley, Gauteng 1830, South Africa",-26.37781,27.800957,"-26.37781, 27.800957","7/23/25, 10:39 AM GMT+02:00",GPS Map Camera,ettienejvr@gmail.com,Captured
217,SPKH1135.JPG,LAW-P-1216,"Lawley, Gauteng, South Africa","Piranha Crescent, Lawley, Lawley, Gauteng 1830, South Africa",-26.397932,27.806146,"-26.397932, 27.806146","7/23/25, 1:49 PM GMT+02:00",GPS Map Camera,ettienejvr@gmail.com,Captured
218,SSPG1126.JPG,LAW-P-1217,"Lawley, Gauteng, South Africa","Lawley Road, Lawley Extento, Lawley, Gauteng 1830, South Africa",-26.394244,27.815477,"-26.394244, 27.815477","7/23/25, 3:35 PM GMT+02:00",GPS Map Camera,ettienejvr@gmail.com,Captured
219,TBHV5255.JPG,LAW-P-1218,"Lawley, Gauteng, South Africa","2nd Avenue, Elandsfontein, Lawley, Gauteng 1830, South Africa",-26.368205,27.813602,"-26.368205, 27.813602","7/23/25, 9:07 AM GMT+02:00",GPS Map Camera,ettienejvr@gmail.com,Captured
220,TCPI1013.JPG,LAW-P-1219,"Lawley, Gauteng, South Africa","3rd Avenue, Lawley, Lawley, Gauteng 1830, South Africa",-26.364343,27.804738,"-26.364343, 27.804738","7/23/25, 11:01 AM GMT+02:00",GPS Map Camera,ettienejvr@gmail.com,Captured
221,TELP8044.JPG,LAW-P-1220,"Lawley, Gauteng, South Africa","Market Street, Lawley Extento, Lawley, Gauteng 1830, South Africa",-26.380178,27.803066,"-26.380178, 27.803066","7/23/25, 10:20 AM GMT+02:00",GPS Map Camera,ettienejvr@gmail.com,Captured
222,TEWK4669.JPG,LAW-P-1221,"Lawley, Gauteng, South Africa","Main Road, Elandsfontein, Lawley, Gauteng 1830, South Africa",-26.396757,27.813392,"-26.396757, 27.813392","7/23/25, 2:40 PM GMT+02:00",GPS Map Camera,ettienejvr@gmail.com,Captured
223,TFGY3968.JPG,LAW-P-1222,"Lawley, Gauteng, South Africa","Church Street, Lawley, Lawley, Gauteng 1830, South Africa",-26.388155,27.802904,"-26.388155, 27.802904","7/23/25, 8:05 AM GMT+02:00",GPS Map Camera,ettienejvr@gmail.com,Captured
224,TLNQ4300.JPG,LAW-P-1223,"Lawley, Gauteng, South Africa","School Street, Lawley Extento, Lawley, Gauteng 1830, South Africa",-26.393351,27.80538,"-26.393351, 27.80538","7/23/25, 10:19 AM GMT+02:00",GPS Map Camera,ettienejvr@gmail.com,Captured
225,TNLM1397.JPG,LAW-P-1224,"Lawley, Gauteng, South Africa","Mandela Street, Elandsfontein, Lawley, Gauteng 1830, South Africa",-26.39826,27.819238,"-26.39826, 27.819238","7/23/25, 10:09 AM GMT+02:00",GPS Map Camera,ettienejvr@gmail.com,Captured
226,TUYE7948.JPG,LAW-P-1225,"Lawley, Gauteng, South Africa","Freedom Way, Lawley, Lawley, Gauteng 1830, South Africa",-26.372537,27.803827,"-26.372537, 27.803827","7/23/25, 12:05 PM GMT+02:00",GPS Map Camera,ettienejvr@gmail.com,Captured
227,TVFQ6621.JPG,LAW-P-1226,"Lawley, Gauteng, South Africa","Unity Road, Lawley Extento, Lawley, Gauteng 1830, South Africa",-26.375115,27.812431,"-26.375115, 27.812431","7/23/25, 8:14 AM GMT+02:00",GPS Map Camera,ettienejvr@gmail.com,Captured
228,TWOI4932.JPG,LAW-P-1227,"Lawley, Gauteng, South Africa","Hope Street, Elandsfontein, Lawley, Gauteng 1830, South Africa",-26.366585,27.804008,"-26.366585, 27.804008","7/23/25, 12:26 PM GMT+02:00",GPS Map Camera,ettienejvr@gmail.com,Captured
229,UADC3182.JPG,LAW-P-1228,"Lawley, Gauteng, South Africa","Piranha Crescent, Lawley, Lawley, Gauteng 1830, South Africa",-26.365238,27.80644,"-26.365238, 27.80644","7/23/25, 8:11 AM GMT+02:00",GPS Map Camera,ettienejvr@gmail.com,Captured
230,UAEF2339.JPG,LAW-P-1229,"Lawley, Gauteng, South Africa","Lawley Road, Lawley Extento, Lawley, Gauteng 1830, South Africa",-26.37647,27.805787,"-26.37647, 27.805787","7/23/25, 9:13 AM GMT+02:00",GPS Map Camera,ettienejvr@gmail.com,Captured
231,UDKC3881.JPG,LAW-P-1230,"Lawley, Gauteng, South Africa","2nd Avenue, Elandsfontein, Lawley, Gauteng 1830, South Africa",-26.379784,27.809803,"-26.379784, 27.809803","7/23/25, 3:26 PM GMT+02:00",GPS Map Camera,ettienejvr@gmail.com,Captured
232,UDVJ6459.JPG,LAW-P-1231,"Lawley, Gauteng, South Africa","3rd Avenue, Lawley, Lawley, Gauteng 1830, South Africa",-26.395452,27.815887,"-26.395452, 27.815887","7/23/25, 12:06 PM GMT+02:00",GPS Map Camera,ettienejvr@gmail.com,Captured
233,UJHM6420.JPG,LAW-P-1232,"Lawley, Gauteng, South Africa","Market Street, Lawley Extento, Lawley, Gauteng 1830, South Africa",-26.386239,27.808645,"-26.386239, 27.808645","7/23/25, 10:34 AM GMT+02:00",GPS Map Camera,ettienejvr@gmail.com,Captured
234,UKZK6251.JPG,LAW-P-1233,"Lawley, Gauteng, South Africa","Main Road, Elandsfontein, Lawley, Gauteng 1830, South Africa",-26.388404,27.807009,"-26.388404, 27.807009","7/23/25, 3:28 PM GMT+02:00",GPS Map Camera,ettienejvr@gmail.com,Captured
235,ULKY5152.JPG,LAW-P-1234,"Lawley, Gauteng, South Africa","Church Street, Lawley, Lawley, Gauteng 1830, South Africa",-26.373492,27.816128,"-26.373492, 27.816128","7/23/25, 8:30 AM GMT+02:00",GPS Map Camera,ettienejvr@gmail.com,Captured
236,UUZQ0214.JPG,LAW-P-1235,"Lawley, Gauteng, South Africa","Lawley Road, Elandsfontein, Lawley, Gauteng 1830, South Africa",-26.382613,27.807202,"-26.382613, 27.807202",07/24/2025 03:14 PM GMT+02:00,GPS Map Camera,ettienejvr@gmail.com,Captured
237,UVDN4826.JPG,LAW-P-1236,"Lawley, Gauteng, South Africa","Mandela Street, Elandsfontein, Lawley, Gauteng 1830, South Africa",-26.396387,27.80911,"-26.396387, 27.80911","7/23/25, 10:34 AM GMT+02:00",GPS Map Camera,ettienejvr@gmail.com,Captured
238,UYHX2141.JPG,LAW-P-1237,"Lawley, Gauteng, South Africa","Freedom Way, Lawley, Lawley, Gauteng 1830, South Africa",-26.380785,27.811444,"-26.380785, 27.811444","7/23/25, 2:36 PM GMT+02:00",GPS Map Camera,ettienejvr@gmail.com,Captured
239,VACT9642.JPG,LAW-P-1238,"Lawley, Gauteng, South Africa","Unity Road, Lawley Extento, Lawley, Gauteng 1830, South Africa",-26.384014,27.808315,"-26.384014, 27.808315","7/23/25, 10:35 AM GMT+02:00",GPS Map Camera,ettienejvr@gmail.com,Captured
240,VFXI5873.JPG,LAW-P-1239,"Lawley, Gauteng, South Africa","Hope Street, Elandsfontein, Lawley, Gauteng 1830, South Africa",-26.375417,27.813914,"-26.375417, 27.813914","7/23/25, 12:26 PM GMT+02:00",GPS Map Camera,ettienejvr@gmail.com,Captured
241,VHQQ4500.JPG,LAW-P-1240,"Lawley, Gauteng, South Africa","Piranha Crescent, Lawley, Lawley, Gauteng 1830, South Africa",-26.360619,27.805906,"-26.360619, 27.805906","7/23/25, 12:02 PM GMT+02:00",GPS Map Camera,ettienejvr@gmail.com,Captured
242,VIKN9189.JPG,LAW-P-1241,"Lawley, Gauteng, South Africa","Lawley Road, Lawley Extento, Lawley, Gauteng 1830, South Africa",-26.383197,27.818968,"-26.383197, 27.818968","7/23/25, 10:10 AM GMT+02:00",GPS Map Camera,ettienejvr@gmail.com,Captured
243,VITV2559.JPG,LAW-P-1242,"Lawley, Gauteng, South Africa","2nd Avenue, Elandsfontein, Lawley, Gauteng 1830, South Africa",-26.387844,27.81651,"-26.387844, 27.81651","7/23/25, 1:37 PM GMT+02:00",GPS Map Camera,ettienejvr@gmail.com,Captured
244,VJBR8865.JPG,LAW-P-1243,"Lawley, Gauteng, South Africa","3rd Avenue, Lawley, Lawley, Gauteng 1830, South Africa",-26.381702,27.802432,"-26.381702, 27.802432","7/23/25, 11:30 AM GMT+02:00",GPS Map Camera,ettienejvr@gmail.com,Captured
245,VNJV1636.JPG,LAW-P-1244,"Lawley, Gauteng, South Africa","Market Street, Lawley Extento, Lawley, Gauteng 1830, South Africa",-26.387687,27.805631,"-26.387687, 27.805631","7/23/25, 1:22 PM GMT+02:00",GPS Map Camera,ettienejvr@gmail.com,Captured
246,VOEV0130.JPG,LAW-P-1245,"Lawley, Gauteng, South Africa","Main Road, Elandsfontein, Lawley, Gauteng 1830, South Africa",-26.372653,27.817547,"-26.372653, 27.817547","7/23/25, 9:03 AM GMT+02:00",GPS Map Camera,ettienejvr@gmail.com,Captured
247,VQTO0938.JPG,LAW-P-1246,"Lawley, Gauteng, South Africa","Church Street, Lawley, Lawley, Gauteng 1830, South Africa",-26.382137,27.819482,"-26.382137, 27.819482","7/23/25, 9:44 AM GMT+02:00",GPS Map Camera,ettienejvr@gmail.com,Captured
248,VVTZ8254.JPG,LAW-P-1247,"Lawley, Gauteng, South Africa","School Street, Lawley Extento, Lawley, Gauteng 1830, South Africa",-26.387282,27.805473,"-26.387282, 27.805473","7/23/25, 11:22 AM GMT+02:00",GPS Map Camera,ettienejvr@gmail.com,Captured
249,VZWT3807.JPG,LAW-P-1248,"Lawley, Gauteng, South Africa","Mandela Street, Elandsfontein, Lawley, Gauteng 1830, South Africa",-26.387763,27.808286,"-26.387763, 27.808286","7/23/25, 12:48 PM GMT+02:00",GPS Map Camera,ettienejvr@gmail.com,Captured
250,WDGD3512.JPG,LAW-P-1249,"Lawley, Gauteng, South Africa","Freedom Way, Lawley, Lawley, Gauteng 1830, South Africa",-26.373565,27.813017,"-26.373565, 27.813017","7/23/25, 11:08 AM GMT+02:00",GPS Map Camera,ettienejvr@gmail.com,Captured
251,WERG9200.JPG,LAW-P-1250,"Lawley, Gauteng, South Africa","Unity Road, Lawley Extento, Lawley, Gauteng 1830, South Africa",-26.390258,27.80208,"-26.390258, 27.80208","7/23/25, 2:33 PM GMT+02:00",GPS Map Camera,ettienejvr@gmail.com,Captured
252,WGZP0725.JPG,LAW-P-1251,"Lawley, Gauteng, South Africa","Hope Street, Elandsfontein, Lawley, Gauteng 1830, South Africa",-26.377705,27.819891,"-26.377705, 27.819891","7/23/25, 9:20 AM GMT+02:00",GPS Map Camera,ettienejvr@gmail.com,Captured
253,WKNB3113.JPG,LAW-P-1252,"Lawley, Gauteng, South Africa","Piranha Crescent, Lawley, Lawley, Gauteng 1830, South Africa",-26.378349,27.801251,"-26.378349, 27.801251","7/23/25, 2:52 PM GMT+02:00",GPS Map Camera,ettienejvr@gmail.com,Captured
254,WNIF2205.JPG,LAW-P-1253,"Lawley, Gauteng, South Africa","Lawley Road, Lawley Extento, Lawley, Gauteng 1830, South Africa",-26.375595,27.803382,"-26.375595, 27.803382","7/23/25, 10:31 AM GMT+02:00",GPS Map Camera,ettienejvr@gmail.com,Captured
255,WPUP1273.JPG,LAW-P-1254,"Lawley, Gauteng, South Africa","2nd Avenue, Elandsfontein, Lawley, Gauteng 1830, South Africa",-26.370748,27.819371,"-26.370748, 27.819371","7/23/25, 11:51 AM GMT+02:00",GPS Map Camera,ettienejvr@gmail.com,Captured
256,WSRB6420.JPG,LAW-P-1255,"Lawley, Gauteng, South Africa","3rd Avenue, Lawley, Lawley, Gauteng 1830, South Africa",-26.399538,27.812827,"-26.399538, 27.812827","7/23/25, 2:53 PM GMT+02:00",GPS Map Camera,ettienejvr@gmail.com,Captured
257,WTFY1547.JPG,LAW-P-1256,"Lawley, Gauteng, South Africa","Market Street, Lawley Extento, Lawley, Gauteng 1830, South Africa",-26.394069,27.819994,"-26.394069, 27.819994","7/23/25, 11:15 AM GMT+02:00",GPS Map Camera,ettienejvr@gmail.com,Captured
258,WWAS6268.JPG,LAW-P-1257,"Lawley, Gauteng, South Africa","Main Road, Elandsfontein, Lawley, Gauteng 1830, South Africa",-26.394367,27.81049,"-26.394367, 27.81049","7/23/25, 2:35 PM GMT+02:00",GPS Map Camera,ettienejvr@gmail.com,Captured
259,WYRN2954.JPG,LAW-P-1258,"Lawley, Gauteng, South Africa","Church Street, Lawley, Lawley, Gauteng 1830, South Africa",-26.395777,27.803674,"-26.395777, 27.803674","7/23/25, 1:53 PM GMT+02:00",GPS Map Camera,ettienejvr@gmail.com,Captured
260,XAZG0669.JPG,LAW-P-1259,"Lawley, Gauteng, South Africa","School Street, Lawley Extento, Lawley, Gauteng 1830, South Africa",-26.363798,27.809887,"-26.363798, 27.809887","7/23/25, 8:45 AM GMT+02:00",GPS Map Camera,ettienejvr@gmail.com,Captured
261,XDZH3344.JPG,LAW-P-1260,"Lawley, Gauteng, South Africa","Mandela Street, Elandsfontein, Lawley, Gauteng 1830, South Africa",-26.370156,27.807082,"-26.370156, 27.807082","7/23/25, 9:43 AM GMT+02:00",GPS Map Camera,ettienejvr@gmail.com,Captured
262,XFKG0609.JPG,LAW-P-1261,"Lawley, Gauteng, South Africa","Freedom Way, Lawley, Lawley, Gauteng 1830, South Africa",-26.379432,27.818201,"-26.379432, 27.818201","7/23/25, 9:01 AM GMT+02:00",GPS Map Camera,ettienejvr@gmail.com,Captured
263,XHPT1307.JPG,LAW-P-1262,"Lawley, Gauteng, South Africa","Unity Road, Lawley Extento, Lawley, Gauteng 1830, South Africa",-26.360963,27.800659,"-26.360963, 27.800659","7/23/25, 10:51 AM GMT+02:00",GPS Map Camera,ettienejvr@gmail.com,Captured
264,XJIL4173.JPG,LAW-P-1263,"Lawley, Gauteng, South Africa","Hope Street, Elandsfontein, Lawley, Gauteng 1830, South Africa",-26.398518,27.815067,"-26.398518, 27.815067","7/23/25, 10:39 AM GMT+02:00",GPS Map Camera,ettienejvr@gmail.com,Captured
265,XJTC4692.JPG,LAW-P-1264,"Lawley, Gauteng, South Africa","Piranha Crescent, Lawley, Lawley, Gauteng 1830, South Africa",-26.367115,27.819598,"-26.367115, 27.819598","7/23/25, 11:28 AM GMT+02:00",GPS Map Camera,ettienejvr@gmail.com,Captured
266,XKHY7283.JPG,LAW-P-1265,"Lawley, Gauteng, South Africa","Lawley Road, Lawley Extento, Lawley, Gauteng 1830, South Africa",-26.380819,27.816658,"-26.380819, 27.816658","7/23/25, 8:14 AM GMT+02:00",GPS Map Camera,ettienejvr@gmail.com,Captured
267,XKWN7211.JPG,LAW-P-1266,"Lawley, Gauteng, South Africa","2nd Avenue, Elandsfontein, Lawley, Gauteng 1830, South Africa",-26.368587,27.806504,"-26.368587, 27.806504","7/23/25, 1:58 PM GMT+02:00",GPS Map Camera,ettienejvr@gmail.com,Captured
268,XLND0902.JPG,LAW-P-1267,"Lawley, Gauteng, South Africa","3rd Avenue, Lawley, Lawley, Gauteng 1830, South Africa",-26.377117,27.815112,"-26.377117, 27.815112","7/23/25, 8:56 AM GMT+02:00",GPS Map Camera,ettienejvr@gmail.com,Captured
269,XLVI6517.JPG,LAW-P-1268,"Lawley, Gauteng, South Africa","Market Street, Lawley Extento, Lawley, Gauteng 1830, South Africa",-26.361337,27.817552,"-26.361337, 27.817552","7/23/25, 2:09 PM GMT+02:00",GPS Map Camera,ettienejvr@gmail.com,Captured
270,XMVZ6722.JPG,LAW-P-1269,"Lawley, Gauteng, South Africa","Main Road, Elandsfontein, Lawley, Gauteng 1830, South Africa",-26.393988,27.804308,"-26.393988, 27.804308","7/23/25, 9:37 AM GMT+02:00",GPS Map Camera,ettienejvr@gmail.com,Captured
271,XOJB0232.JPG,LAW-P-1270,"Lawley, Gauteng, South Africa","Church Street, Lawley, Lawley, Gauteng 1830, South Africa",-26.391182,27.804113,"-26.391182, 27.804113","7/23/25, 10:33 AM GMT+02:00",GPS Map Camera,ettienejvr@gmail.com,Captured
272,XPRM9810.JPG,LAW-P-1271,"Lawley, Gauteng, South Africa","School Street, Lawley Extento, Lawley, Gauteng 1830, South Africa",-26.389358,27.812874,"-26.389358, 27.812874","7/23/25, 3:59 PM GMT+02:00",GPS Map Camera,ettienejvr@gmail.com,Captured
273,XULD6295.JPG,LAW-P-1272,"Lawley, Gauteng, South Africa","Mandela Street, Elandsfontein, Lawley, Gauteng 1830, South Africa",-26.372272,27.817113,"-26.372272, 27.817113","7/23/25, 3:12 PM GMT+02:00",GPS Map Camera,ettienejvr@gmail.com,Captured
274,XXIH3089.JPG,LAW-P-1273,"Lawley, Gauteng, South Africa","Freedom Way, Lawley, Lawley, Gauteng 1830, South Africa",-26.387416,27.807243,"-26.387416, 27.807243","7/23/25, 1:15 PM GMT+02:00",GPS Map Camera,ettienejvr@gmail.com,Captured
275,XXSS4512.JPG,LAW-P-1274,"Lawley, Gauteng, South Africa","Unity Road, Lawley Extento, Lawley, Gauteng 1830, South Africa",-26.396233,27.800487,"-26.396233, 27.800487","7/23/25, 12:39 PM GMT+02:00",GPS Map Camera,ettienejvr@gmail.com,Captured
276,XYWV9477.JPG,LAW-P-1275,"Lawley, Gauteng, South Africa","Hope Street, Elandsfontein, Lawley, Gauteng 1830, South Africa",-26.36021,27.816931,"-26.36021, 27.816931","7/23/25, 12:00 PM GMT+02:00",GPS Map Camera,ettienejvr@gmail.com,Captured
277,YAJF1719.JPG,LAW-P-1276,"Lawley, Gauteng, South Africa","Piranha Crescent, Lawley, Lawley, Gauteng 1830, South Africa",-26.389295,27.810705,"-26.389295, 27.810705","7/23/25, 8:12 AM GMT+02:00",GPS Map Camera,ettienejvr@gmail.com,Captured
278,YLJC3423.JPG,LAW-P-1277,"Lawley, Gauteng, South Africa","Lawley Road, Lawley Extento, Lawley, Gauteng 1830, South Africa",-26.376848,27.808047,"-26.376848, 27.808047","7/23/25, 9:29 AM GMT+02:00",GPS Map Camera,ettienejvr@gmail.com,Captured
