No.,File Name,Location,Full Address,Latitude,Longitude,GPS Coordinates,Date/Time,Captured By,Uploaded By,Status,Data Source
1,ABKU4865.JPG,"Lawley, Gauteng, South Africa",Pending extraction,,,,,GPS Map Camera,ettienejvr@gmail.com,Pending,Needs manual extraction
2,ABOW5086.JPG,"Lawley, Gauteng, South Africa",Pending extraction,,,,,GPS Map Camera,ettienejvr@gmail.com,Pending,Needs manual extraction
3,AEJD0192.JPG,"Lawley, Gauteng, South Africa",Pending extraction,,,,,GPS Map Camera,ettienejvr@gmail.com,Pending,Needs manual extraction
4,AFKK3290.JPG,"Lawley, Gauteng, South Africa",Pending extraction,,,,,GPS Map Camera,ettienejvr@gmail.com,Pending,Needs manual extraction
5,AGJO0968.JPG,"Lawley, Gauteng, South Africa",Pending extraction,,,,,GPS Map Camera,ettienejvr@gmail.com,Pending,Needs manual extraction
6,ALDT8478.JPG,"Lawley, Gauteng, South Africa",Pending extraction,,,,,GPS Map Camera,ettienejvr@gmail.com,Pending,Needs manual extraction
7,ANGT3574.JPG,"Lawley, Gauteng, South Africa",Pending extraction,,,,,GPS Map Camera,ettienejvr@gmail.com,Pending,Needs manual extraction
8,AQXY9444.JPG,"Lawley, Gauteng, South Africa",Pending extraction,,,,,GPS Map Camera,ettienejvr@gmail.com,Pending,Needs manual extraction
9,ARDJ2862.JPG,"Lawley, Gauteng, South Africa",Pending extraction,,,,,GPS Map Camera,ettienejvr@gmail.com,Pending,Needs manual extraction
10,ARGS9536.JPG,"Lawley, Gauteng, South Africa","2nd Avenue, Lawley Extento, Lawley, Gauteng 1830, South Africa",-26.37387,27.810132,"-26.37387, 27.810132",07/23/2025 02:05 PM GMT+02:00,GPS Map Camera,ettienejvr@gmail.com,Extracted,Manual Extraction
11,ARZV1695.JPG,"Lawley, Gauteng, South Africa",Pending extraction,,,,,GPS Map Camera,ettienejvr@gmail.com,Pending,Needs manual extraction
12,ASFR5899.JPG,"Lawley, Gauteng, South Africa",Pending extraction,,,,,GPS Map Camera,ettienejvr@gmail.com,Pending,Needs manual extraction
13,AVQE2541.JPG,"Lawley, Gauteng, South Africa",Pending extraction,,,,,GPS Map Camera,ettienejvr@gmail.com,Pending,Needs manual extraction
14,AXWD8963.JPG,"Lawley, Gauteng, South Africa",Pending extraction,,,,,GPS Map Camera,ettienejvr@gmail.com,Pending,Needs manual extraction
15,BAHM3423.JPG,"Lawley, Gauteng, South Africa",Pending extraction,,,,,GPS Map Camera,ettienejvr@gmail.com,Pending,Needs manual extraction
16,BBFL7303.JPG,"Lawley, Gauteng, South Africa",Pending extraction,,,,,GPS Map Camera,ettienejvr@gmail.com,Pending,Needs manual extraction
17,BBNO8820.JPG,"Lawley, Gauteng, South Africa",Pending extraction,,,,,GPS Map Camera,ettienejvr@gmail.com,Pending,Needs manual extraction
18,BIZJ8490.JPG,"Lawley, Gauteng, South Africa",Pending extraction,,,,,GPS Map Camera,ettienejvr@gmail.com,Pending,Needs manual extraction
19,BMCZ3397.JPG,"Lawley, Gauteng, South Africa",Pending extraction,,,,,GPS Map Camera,ettienejvr@gmail.com,Pending,Needs manual extraction
20,BMES8191.JPG,"Lawley, Gauteng, South Africa",Pending extraction,,,,,GPS Map Camera,ettienejvr@gmail.com,Pending,Needs manual extraction
21,BNZL9622.JPG,"Lawley, Gauteng, South Africa",Pending extraction,,,,,GPS Map Camera,ettienejvr@gmail.com,Pending,Needs manual extraction
22,BOTI0083.JPG,"Lawley, Gauteng, South Africa",Pending extraction,,,,,GPS Map Camera,ettienejvr@gmail.com,Pending,Needs manual extraction
23,BRMQ8573.JPG,"Lawley, Gauteng, South Africa",Pending extraction,,,,,GPS Map Camera,ettienejvr@gmail.com,Pending,Needs manual extraction
24,BSAC1151.JPG,"Lawley, Gauteng, South Africa",Pending extraction,,,,,GPS Map Camera,ettienejvr@gmail.com,Pending,Needs manual extraction
25,BSVV3015.JPG,"Lawley, Gauteng, South Africa",Pending extraction,,,,,GPS Map Camera,ettienejvr@gmail.com,Pending,Needs manual extraction
26,BVXT8184.JPG,"Lawley, Gauteng, South Africa",Pending extraction,,,,,GPS Map Camera,ettienejvr@gmail.com,Pending,Needs manual extraction
27,BWHK1080.JPG,"Lawley, Gauteng, South Africa",Pending extraction,,,,,GPS Map Camera,ettienejvr@gmail.com,Pending,Needs manual extraction
28,BYZJ7377.JPG,"Lawley, Gauteng, South Africa",Pending extraction,,,,,GPS Map Camera,ettienejvr@gmail.com,Pending,Needs manual extraction
29,CCHC6189.JPG,"Lawley, Gauteng, South Africa",Pending extraction,,,,,GPS Map Camera,ettienejvr@gmail.com,Pending,Needs manual extraction
30,CFEZ4826.JPG,"Lawley, Gauteng, South Africa",Pending extraction,,,,,GPS Map Camera,ettienejvr@gmail.com,Pending,Needs manual extraction
31,CHXX4480.JPG,"Lawley, Gauteng, South Africa",Pending extraction,,,,,GPS Map Camera,ettienejvr@gmail.com,Pending,Needs manual extraction
32,CIFN6820.JPG,"Lawley, Gauteng, South Africa",Pending extraction,,,,,GPS Map Camera,ettienejvr@gmail.com,Pending,Needs manual extraction
33,CKCL1172.JPG,"Lawley, Gauteng, South Africa",Pending extraction,,,,,GPS Map Camera,ettienejvr@gmail.com,Pending,Needs manual extraction
34,CMFB6989.JPG,"Lawley, Gauteng, South Africa",Pending extraction,,,,,GPS Map Camera,ettienejvr@gmail.com,Pending,Needs manual extraction
35,CNPR3546.JPG,"Lawley, Gauteng, South Africa",Pending extraction,,,,,GPS Map Camera,ettienejvr@gmail.com,Pending,Needs manual extraction
36,CPIY3449.JPG,"Lawley, Gauteng, South Africa",Pending extraction,,,,,GPS Map Camera,ettienejvr@gmail.com,Pending,Needs manual extraction
37,CRCM2517.JPG,"Lawley, Gauteng, South Africa",Pending extraction,,,,,GPS Map Camera,ettienejvr@gmail.com,Pending,Needs manual extraction
38,CURY0142.JPG,"Lawley, Gauteng, South Africa",Pending extraction,,,,,GPS Map Camera,ettienejvr@gmail.com,Pending,Needs manual extraction
39,CUZE5708.JPG,"Lawley, Gauteng, South Africa",Pending extraction,,,,,GPS Map Camera,ettienejvr@gmail.com,Pending,Needs manual extraction
40,CVYD6786.JPG,"Lawley, Gauteng, South Africa",Pending extraction,,,,,GPS Map Camera,ettienejvr@gmail.com,Pending,Needs manual extraction
41,CWVA8617.JPG,"Lawley, Gauteng, South Africa",Pending extraction,,,,,GPS Map Camera,ettienejvr@gmail.com,Pending,Needs manual extraction
42,DIVV9861.JPG,"Lawley, Gauteng, South Africa",Pending extraction,,,,,GPS Map Camera,ettienejvr@gmail.com,Pending,Needs manual extraction
43,DLED9593.JPG,"Lawley, Gauteng, South Africa",Pending extraction,,,,,GPS Map Camera,ettienejvr@gmail.com,Pending,Needs manual extraction
44,DMWX1009.JPG,"Lawley, Gauteng, South Africa","Barracuda Road, Elandsfontein, Lawley, Gauteng 1830, South Africa",-26.390316,27.810644,"-26.390316, 27.810644",07/23/2025 11:02 AM GMT+02:00,GPS Map Camera,ettienejvr@gmail.com,Extracted,Manual Extraction
45,DSSJ8820.JPG,"Lawley, Gauteng, South Africa",Pending extraction,,,,,GPS Map Camera,ettienejvr@gmail.com,Pending,Needs manual extraction
46,DWIS9846.JPG,"Lawley, Gauteng, South Africa",Pending extraction,,,,,GPS Map Camera,ettienejvr@gmail.com,Pending,Needs manual extraction
47,DXGS2451.JPG,"Lawley, Gauteng, South Africa",Pending extraction,,,,,GPS Map Camera,ettienejvr@gmail.com,Pending,Needs manual extraction
48,ECAT6148.JPG,"Lawley, Gauteng, South Africa",Pending extraction,,,,,GPS Map Camera,ettienejvr@gmail.com,Pending,Needs manual extraction
49,EGVZ5387.JPG,"Lawley, Gauteng, South Africa",Pending extraction,,,,,GPS Map Camera,ettienejvr@gmail.com,Pending,Needs manual extraction
50,EJGI5277.JPG,"Lawley, Gauteng, South Africa",Pending extraction,,,,,GPS Map Camera,ettienejvr@gmail.com,Pending,Needs manual extraction
51,EJOW5275.JPG,"Lawley, Gauteng, South Africa",Pending extraction,,,,,GPS Map Camera,ettienejvr@gmail.com,Pending,Needs manual extraction
52,EKVB0045.JPG,"Lawley, Gauteng, South Africa",Pending extraction,,,,,GPS Map Camera,ettienejvr@gmail.com,Pending,Needs manual extraction
53,ELEF5957.JPG,"Lawley, Gauteng, South Africa",Pending extraction,,,,,GPS Map Camera,ettienejvr@gmail.com,Pending,Needs manual extraction
54,ELGT6458.JPG,"Lawley, Gauteng, South Africa",Pending extraction,,,,,GPS Map Camera,ettienejvr@gmail.com,Pending,Needs manual extraction
55,EOCV4425.JPG,"Lawley, Gauteng, South Africa",Pending extraction,,,,,GPS Map Camera,ettienejvr@gmail.com,Pending,Needs manual extraction
56,EOIZ5717.JPG,"Lawley, Gauteng, South Africa",Pending extraction,,,,,GPS Map Camera,ettienejvr@gmail.com,Pending,Needs manual extraction
57,ETTC0277.JPG,"Lawley, Gauteng, South Africa",Pending extraction,,,,,GPS Map Camera,ettienejvr@gmail.com,Pending,Needs manual extraction
58,EWBU1563.JPG,"Lawley, Gauteng, South Africa",Pending extraction,,,,,GPS Map Camera,ettienejvr@gmail.com,Pending,Needs manual extraction
59,EWPN3355.JPG,"Lawley, Gauteng, South Africa",Pending extraction,,,,,GPS Map Camera,ettienejvr@gmail.com,Pending,Needs manual extraction
60,EYVK8258.JPG,"Lawley, Gauteng, South Africa",Pending extraction,,,,,GPS Map Camera,ettienejvr@gmail.com,Pending,Needs manual extraction
61,FCRK6534.JPG,"Lawley, Gauteng, South Africa",Pending extraction,,,,,GPS Map Camera,ettienejvr@gmail.com,Pending,Needs manual extraction
62,FEDH2359.JPG,"Lawley, Gauteng, South Africa",Pending extraction,,,,,GPS Map Camera,ettienejvr@gmail.com,Pending,Needs manual extraction
63,FGYH9883.JPG,"Lawley, Gauteng, South Africa",Pending extraction,,,,,GPS Map Camera,ettienejvr@gmail.com,Pending,Needs manual extraction
64,FKAS6112.JPG,"Lawley, Gauteng, South Africa",Pending extraction,,,,,GPS Map Camera,ettienejvr@gmail.com,Pending,Needs manual extraction
65,FOBP7095.JPG,"Lawley, Gauteng, South Africa",Pending extraction,,,,,GPS Map Camera,ettienejvr@gmail.com,Pending,Needs manual extraction
66,FPRN8261.JPG,"Lawley, Gauteng, South Africa",Pending extraction,,,,,GPS Map Camera,ettienejvr@gmail.com,Pending,Needs manual extraction
67,FPUA8230.JPG,"Lawley, Gauteng, South Africa",Pending extraction,,,,,GPS Map Camera,ettienejvr@gmail.com,Pending,Needs manual extraction
68,FQHP7703.JPG,"Lawley, Gauteng, South Africa",Pending extraction,,,,,GPS Map Camera,ettienejvr@gmail.com,Pending,Needs manual extraction
69,FRZT7746.JPG,"Lawley, Gauteng, South Africa",Pending extraction,,,,,GPS Map Camera,ettienejvr@gmail.com,Pending,Needs manual extraction
70,FSIE6113.JPG,"Lawley, Gauteng, South Africa",Pending extraction,,,,,GPS Map Camera,ettienejvr@gmail.com,Pending,Needs manual extraction
71,FUUK5806.JPG,"Lawley, Gauteng, South Africa",Pending extraction,,,,,GPS Map Camera,ettienejvr@gmail.com,Pending,Needs manual extraction
72,FVNM8623.JPG,"Lawley, Gauteng, South Africa",Pending extraction,,,,,GPS Map Camera,ettienejvr@gmail.com,Pending,Needs manual extraction
73,FWNA8701.JPG,"Lawley, Gauteng, South Africa",Pending extraction,,,,,GPS Map Camera,ettienejvr@gmail.com,Pending,Needs manual extraction
74,FZCN1104.JPG,"Lawley, Gauteng, South Africa",Pending extraction,,,,,GPS Map Camera,ettienejvr@gmail.com,Pending,Needs manual extraction
75,GBBN9148.JPG,"Lawley, Gauteng, South Africa","Siyabonga Street, Elandsfontein, Lawley, Gauteng 1830, South Africa",-26.378948,27.809967,"-26.378948, 27.809967",07/23/2025 01:56 PM GMT+02:00,GPS Map Camera,ettienejvr@gmail.com,Extracted,Manual Extraction
76,GDJF1059.JPG,"Lawley, Gauteng, South Africa",Pending extraction,,,,,GPS Map Camera,ettienejvr@gmail.com,Pending,Needs manual extraction
77,GFXE6104.JPG,"Lawley, Gauteng, South Africa",Pending extraction,,,,,GPS Map Camera,ettienejvr@gmail.com,Pending,Needs manual extraction
78,GHOQ0380.JPG,"Lawley, Gauteng, South Africa",Pending extraction,,,,,GPS Map Camera,ettienejvr@gmail.com,Pending,Needs manual extraction
79,GPLX1215.JPG,"Lawley, Gauteng, South Africa",Pending extraction,,,,,GPS Map Camera,ettienejvr@gmail.com,Pending,Needs manual extraction
80,GTVE5972.JPG,"Lawley, Gauteng, South Africa",Pending extraction,,,,,GPS Map Camera,ettienejvr@gmail.com,Pending,Needs manual extraction
81,GUFJ6642.JPG,"Lawley, Gauteng, South Africa",Pending extraction,,,,,GPS Map Camera,ettienejvr@gmail.com,Pending,Needs manual extraction
82,GVSQ9506.JPG,"Lawley, Gauteng, South Africa",Pending extraction,,,,,GPS Map Camera,ettienejvr@gmail.com,Pending,Needs manual extraction
83,GXLF7888.JPG,"Lawley, Gauteng, South Africa",Pending extraction,,,,,GPS Map Camera,ettienejvr@gmail.com,Pending,Needs manual extraction
84,GXPW1294.JPG,"Lawley, Gauteng, South Africa",Pending extraction,,,,,GPS Map Camera,ettienejvr@gmail.com,Pending,Needs manual extraction
85,GYRT1650.JPG,"Lawley, Gauteng, South Africa",Pending extraction,,,,,GPS Map Camera,ettienejvr@gmail.com,Pending,Needs manual extraction
86,GZAZ0002.JPG,"Lawley, Gauteng, South Africa",Pending extraction,,,,,GPS Map Camera,ettienejvr@gmail.com,Pending,Needs manual extraction
87,GZZE1257.JPG,"Lawley, Gauteng, South Africa",Pending extraction,,,,,GPS Map Camera,ettienejvr@gmail.com,Pending,Needs manual extraction
88,HEBR8966.JPG,"Lawley, Gauteng, South Africa",Pending extraction,,,,,GPS Map Camera,ettienejvr@gmail.com,Pending,Needs manual extraction
89,HFJW0466.JPG,"Lawley, Gauteng, South Africa",Pending extraction,,,,,GPS Map Camera,ettienejvr@gmail.com,Pending,Needs manual extraction
90,HJTK6524.JPG,"Lawley, Gauteng, South Africa",Pending extraction,,,,,GPS Map Camera,ettienejvr@gmail.com,Pending,Needs manual extraction
91,HNWT8378.JPG,"Lawley, Gauteng, South Africa",Pending extraction,,,,,GPS Map Camera,ettienejvr@gmail.com,Pending,Needs manual extraction
92,HRHV1719.JPG,"Lawley, Gauteng, South Africa",Pending extraction,,,,,GPS Map Camera,ettienejvr@gmail.com,Pending,Needs manual extraction
93,HXDI7619.JPG,"Lawley, Gauteng, South Africa",Pending extraction,,,,,GPS Map Camera,ettienejvr@gmail.com,Pending,Needs manual extraction
94,IHDN2384.JPG,"Lawley, Gauteng, South Africa",Pending extraction,,,,,GPS Map Camera,ettienejvr@gmail.com,Pending,Needs manual extraction
95,IKNO0666.JPG,"Lawley, Gauteng, South Africa",Pending extraction,,,,,GPS Map Camera,ettienejvr@gmail.com,Pending,Needs manual extraction
96,INYM6657.JPG,"Lawley, Gauteng, South Africa",Pending extraction,,,,,GPS Map Camera,ettienejvr@gmail.com,Pending,Needs manual extraction
97,ITSN6013.JPG,"Lawley, Gauteng, South Africa",Pending extraction,,,,,GPS Map Camera,ettienejvr@gmail.com,Pending,Needs manual extraction
98,IWTO6731.JPG,"Lawley, Gauteng, South Africa",Pending extraction,,,,,GPS Map Camera,ettienejvr@gmail.com,Pending,Needs manual extraction
99,IXQJ4199.JPG,"Lawley, Gauteng, South Africa",Pending extraction,,,,,GPS Map Camera,ettienejvr@gmail.com,Pending,Needs manual extraction
100,JIUI4919.JPG,"Lawley, Gauteng, South Africa",Pending extraction,,,,,GPS Map Camera,ettienejvr@gmail.com,Pending,Needs manual extraction
101,JJBK8199.JPG,"Lawley, Gauteng, South Africa",Pending extraction,,,,,GPS Map Camera,ettienejvr@gmail.com,Pending,Needs manual extraction
102,JKEY8710.JPG,"Lawley, Gauteng, South Africa",Pending extraction,,,,,GPS Map Camera,ettienejvr@gmail.com,Pending,Needs manual extraction
103,JQYR2834.JPG,"Lawley, Gauteng, South Africa",Pending extraction,,,,,GPS Map Camera,ettienejvr@gmail.com,Pending,Needs manual extraction
104,JSFY9917.JPG,"Lawley, Gauteng, South Africa",Pending extraction,,,,,GPS Map Camera,ettienejvr@gmail.com,Pending,Needs manual extraction
105,JUBJ3863.JPG,"Lawley, Gauteng, South Africa",Pending extraction,,,,,GPS Map Camera,ettienejvr@gmail.com,Pending,Needs manual extraction
106,JUGV5500.JPG,"Lawley, Gauteng, South Africa",Pending extraction,,,,,GPS Map Camera,ettienejvr@gmail.com,Pending,Needs manual extraction
107,JVEI9420.JPG,"Lawley, Gauteng, South Africa",Pending extraction,,,,,GPS Map Camera,ettienejvr@gmail.com,Pending,Needs manual extraction
108,JVZY2095.JPG,"Lawley, Gauteng, South Africa",Pending extraction,,,,,GPS Map Camera,ettienejvr@gmail.com,Pending,Needs manual extraction
109,JWBW3753.JPG,"Lawley, Gauteng, South Africa",Pending extraction,,,,,GPS Map Camera,ettienejvr@gmail.com,Pending,Needs manual extraction
110,JWGZ7542.JPG,"Lawley, Gauteng, South Africa",Pending extraction,,,,,GPS Map Camera,ettienejvr@gmail.com,Pending,Needs manual extraction
111,JWJO4732.JPG,"Lawley, Gauteng, South Africa",Pending extraction,,,,,GPS Map Camera,ettienejvr@gmail.com,Pending,Needs manual extraction
112,JXDE5450.JPG,"Lawley, Gauteng, South Africa",Pending extraction,,,,,GPS Map Camera,ettienejvr@gmail.com,Pending,Needs manual extraction
113,JYNV5321.JPG,"Lawley, Gauteng, South Africa",Pending extraction,,,,,GPS Map Camera,ettienejvr@gmail.com,Pending,Needs manual extraction
114,KCKK0959.JPG,"Lawley, Gauteng, South Africa",Pending extraction,,,,,GPS Map Camera,ettienejvr@gmail.com,Pending,Needs manual extraction
115,KCXA7871.JPG,"Lawley, Gauteng, South Africa",Pending extraction,,,,,GPS Map Camera,ettienejvr@gmail.com,Pending,Needs manual extraction
116,KFYR6665.JPG,"Lawley, Gauteng, South Africa",Pending extraction,,,,,GPS Map Camera,ettienejvr@gmail.com,Pending,Needs manual extraction
117,KGCJ1211.JPG,"Lawley, Gauteng, South Africa",Pending extraction,,,,,GPS Map Camera,ettienejvr@gmail.com,Pending,Needs manual extraction
118,KLDO0620.JPG,"Lawley, Gauteng, South Africa",Pending extraction,,,,,GPS Map Camera,ettienejvr@gmail.com,Pending,Needs manual extraction
119,KLUE5207.JPG,"Lawley, Gauteng, South Africa",Pending extraction,,,,,GPS Map Camera,ettienejvr@gmail.com,Pending,Needs manual extraction
120,KQKK4522.JPG,"Lawley, Gauteng, South Africa",Pending extraction,,,,,GPS Map Camera,ettienejvr@gmail.com,Pending,Needs manual extraction
121,KRAU3608.JPG,"Lawley, Gauteng, South Africa",Pending extraction,,,,,GPS Map Camera,ettienejvr@gmail.com,Pending,Needs manual extraction
122,KRDH4855.JPG,"Lawley, Gauteng, South Africa",Pending extraction,,,,,GPS Map Camera,ettienejvr@gmail.com,Pending,Needs manual extraction
123,KSGK5207.JPG,"Lawley, Gauteng, South Africa",Pending extraction,,,,,GPS Map Camera,ettienejvr@gmail.com,Pending,Needs manual extraction
124,KSZA3267.JPG,"Lawley, Gauteng, South Africa",Pending extraction,,,,,GPS Map Camera,ettienejvr@gmail.com,Pending,Needs manual extraction
125,KUDQ9215.JPG,"Lawley, Gauteng, South Africa",Pending extraction,,,,,GPS Map Camera,ettienejvr@gmail.com,Pending,Needs manual extraction
126,LAMD3284.JPG,"Lawley, Gauteng, South Africa",Pending extraction,,,,,GPS Map Camera,ettienejvr@gmail.com,Pending,Needs manual extraction
127,LBBM2217.JPG,"Lawley, Gauteng, South Africa",Pending extraction,,,,,GPS Map Camera,ettienejvr@gmail.com,Pending,Needs manual extraction
128,LDWE5504.JPG,"Lawley, Gauteng, South Africa",Pending extraction,,,,,GPS Map Camera,ettienejvr@gmail.com,Pending,Needs manual extraction
129,LEFU9103.JPG,"Lawley, Gauteng, South Africa","Piranha Crescent, Elandsfontein, Lawley, Gauteng 1830, South Africa",-26.39649,27.813118,"-26.39649, 27.813118",07/23/2025 11:22 AM GMT+02:00,GPS Map Camera,ettienejvr@gmail.com,Extracted,Manual Extraction
130,LEQB9539.JPG,"Lawley, Gauteng, South Africa",Pending extraction,,,,,GPS Map Camera,ettienejvr@gmail.com,Pending,Needs manual extraction
131,LLDF1597.JPG,"Lawley, Gauteng, South Africa",Pending extraction,,,,,GPS Map Camera,ettienejvr@gmail.com,Pending,Needs manual extraction
132,LPAD7111.JPG,"Lawley, Gauteng, South Africa",Pending extraction,,,,,GPS Map Camera,ettienejvr@gmail.com,Pending,Needs manual extraction
133,LPIC8864.JPG,"Lawley, Gauteng, South Africa",Pending extraction,,,,,GPS Map Camera,ettienejvr@gmail.com,Pending,Needs manual extraction
134,LQKO5148.JPG,"Lawley, Gauteng, South Africa",Pending extraction,,,,,GPS Map Camera,ettienejvr@gmail.com,Pending,Needs manual extraction
135,LQZU0957.JPG,"Lawley, Gauteng, South Africa",Pending extraction,,,,,GPS Map Camera,ettienejvr@gmail.com,Pending,Needs manual extraction
136,LRUC4371.JPG,"Lawley, Gauteng, South Africa",Pending extraction,,,,,GPS Map Camera,ettienejvr@gmail.com,Pending,Needs manual extraction
137,LRWE3363.JPG,"Lawley, Gauteng, South Africa",Pending extraction,,,,,GPS Map Camera,ettienejvr@gmail.com,Pending,Needs manual extraction
138,LTDX9851.JPG,"Lawley, Gauteng, South Africa",Pending extraction,,,,,GPS Map Camera,ettienejvr@gmail.com,Pending,Needs manual extraction
139,LTZI0059.JPG,"Lawley, Gauteng, South Africa",Pending extraction,,,,,GPS Map Camera,ettienejvr@gmail.com,Pending,Needs manual extraction
140,LWVL1065.JPG,"Lawley, Gauteng, South Africa",Pending extraction,,,,,GPS Map Camera,ettienejvr@gmail.com,Pending,Needs manual extraction
141,LWZP8195.JPG,"Lawley, Gauteng, South Africa",Pending extraction,,,,,GPS Map Camera,ettienejvr@gmail.com,Pending,Needs manual extraction
142,MAFW4938.JPG,"Lawley, Gauteng, South Africa",Pending extraction,,,,,GPS Map Camera,ettienejvr@gmail.com,Pending,Needs manual extraction
143,MAQJ2478.JPG,"Lawley, Gauteng, South Africa",Pending extraction,,,,,GPS Map Camera,ettienejvr@gmail.com,Pending,Needs manual extraction
144,MBGP6121.JPG,"Lawley, Gauteng, South Africa",Pending extraction,,,,,GPS Map Camera,ettienejvr@gmail.com,Pending,Needs manual extraction
145,METX0463.JPG,"Lawley, Gauteng, South Africa",Pending extraction,,,,,GPS Map Camera,ettienejvr@gmail.com,Pending,Needs manual extraction
146,MJKL9606.JPG,"Lawley, Gauteng, South Africa",Pending extraction,,,,,GPS Map Camera,ettienejvr@gmail.com,Pending,Needs manual extraction
147,MMJE6410.JPG,"Lawley, Gauteng, South Africa",Pending extraction,,,,,GPS Map Camera,ettienejvr@gmail.com,Pending,Needs manual extraction
148,MQJO4808.JPG,"Lawley, Gauteng, South Africa",Pending extraction,,,,,GPS Map Camera,ettienejvr@gmail.com,Pending,Needs manual extraction
149,MSHD1100.JPG,"Lawley, Gauteng, South Africa",Pending extraction,,,,,GPS Map Camera,ettienejvr@gmail.com,Pending,Needs manual extraction
150,MUVG4780.JPG,"Lawley, Gauteng, South Africa",Pending extraction,,,,,GPS Map Camera,ettienejvr@gmail.com,Pending,Needs manual extraction
151,MVDD5001.JPG,"Lawley, Gauteng, South Africa",Pending extraction,,,,,GPS Map Camera,ettienejvr@gmail.com,Pending,Needs manual extraction
152,NBKS9554.JPG,"Lawley, Gauteng, South Africa",Pending extraction,,,,,GPS Map Camera,ettienejvr@gmail.com,Pending,Needs manual extraction
153,NFPG0936.JPG,"Lawley, Gauteng, South Africa",Pending extraction,,,,,GPS Map Camera,ettienejvr@gmail.com,Pending,Needs manual extraction
154,NFTY2403.JPG,"Lawley, Gauteng, South Africa",Pending extraction,,,,,GPS Map Camera,ettienejvr@gmail.com,Pending,Needs manual extraction
155,NHET7589.JPG,"Lawley, Gauteng, South Africa",Pending extraction,,,,,GPS Map Camera,ettienejvr@gmail.com,Pending,Needs manual extraction
156,NMDI1270.JPG,"Lawley, Gauteng, South Africa",Pending extraction,,,,,GPS Map Camera,ettienejvr@gmail.com,Pending,Needs manual extraction
157,OCZK0771.JPG,"Lawley, Gauteng, South Africa",Pending extraction,,,,,GPS Map Camera,ettienejvr@gmail.com,Pending,Needs manual extraction
158,OFDO0961.JPG,"Lawley, Gauteng, South Africa",Pending extraction,,,,,GPS Map Camera,ettienejvr@gmail.com,Pending,Needs manual extraction
159,OFVD9641.JPG,"Lawley, Gauteng, South Africa",Pending extraction,,,,,GPS Map Camera,ettienejvr@gmail.com,Pending,Needs manual extraction
160,OGKR5607.JPG,"Lawley, Gauteng, South Africa",Pending extraction,,,,,GPS Map Camera,ettienejvr@gmail.com,Pending,Needs manual extraction
161,OJCP7199.JPG,"Lawley, Gauteng, South Africa",Pending extraction,,,,,GPS Map Camera,ettienejvr@gmail.com,Pending,Needs manual extraction
162,OLWW2289.JPG,"Lawley, Gauteng, South Africa",Pending extraction,,,,,GPS Map Camera,ettienejvr@gmail.com,Pending,Needs manual extraction
163,OOAS4702.JPG,"Lawley, Gauteng, South Africa",Pending extraction,,,,,GPS Map Camera,ettienejvr@gmail.com,Pending,Needs manual extraction
164,OORX2011.JPG,"Lawley, Gauteng, South Africa",Pending extraction,,,,,GPS Map Camera,ettienejvr@gmail.com,Pending,Needs manual extraction
165,OPCL9647.JPG,"Lawley, Gauteng, South Africa",Pending extraction,,,,,GPS Map Camera,ettienejvr@gmail.com,Pending,Needs manual extraction
166,OQQK0399.JPG,"Lawley, Gauteng, South Africa",Pending extraction,,,,,GPS Map Camera,ettienejvr@gmail.com,Pending,Needs manual extraction
167,ORAY5913.JPG,"Lawley, Gauteng, South Africa",Pending extraction,,,,,GPS Map Camera,ettienejvr@gmail.com,Pending,Needs manual extraction
168,OSYM6192.JPG,"Lawley, Gauteng, South Africa",Pending extraction,,,,,GPS Map Camera,ettienejvr@gmail.com,Pending,Needs manual extraction
169,OYGM8276.JPG,"Lawley, Gauteng, South Africa",Pending extraction,,,,,GPS Map Camera,ettienejvr@gmail.com,Pending,Needs manual extraction
170,OYQU1252.JPG,"Lawley, Gauteng, South Africa",Pending extraction,,,,,GPS Map Camera,ettienejvr@gmail.com,Pending,Needs manual extraction
171,PFTC5891.JPG,"Lawley, Gauteng, South Africa",Pending extraction,,,,,GPS Map Camera,ettienejvr@gmail.com,Pending,Needs manual extraction
172,PFZK4298.JPG,"Lawley, Gauteng, South Africa",Pending extraction,,,,,GPS Map Camera,ettienejvr@gmail.com,Pending,Needs manual extraction
173,PHLQ5468.JPG,"Lawley, Gauteng, South Africa",Pending extraction,,,,,GPS Map Camera,ettienejvr@gmail.com,Pending,Needs manual extraction
174,PKSM5427.JPG,"Lawley, Gauteng, South Africa",Pending extraction,,,,,GPS Map Camera,ettienejvr@gmail.com,Pending,Needs manual extraction
175,PMOI0570.JPG,"Lawley, Gauteng, South Africa",Pending extraction,,,,,GPS Map Camera,ettienejvr@gmail.com,Pending,Needs manual extraction
176,POKR1584.JPG,"Lawley, Gauteng, South Africa",Pending extraction,,,,,GPS Map Camera,ettienejvr@gmail.com,Pending,Needs manual extraction
177,PVFU5787.JPG,"Lawley, Gauteng, South Africa",Pending extraction,,,,,GPS Map Camera,ettienejvr@gmail.com,Pending,Needs manual extraction
178,PXFC6466.JPG,"Lawley, Gauteng, South Africa","2nd Avenue, Elandsfontein, Lawley, Gauteng 1830, South Africa",-26.384564,27.806597,"-26.384564, 27.806597",07/24/2025 03:04 PM GMT+02:00,GPS Map Camera,ettienejvr@gmail.com,Extracted,Manual Extraction
179,PXMG6451.JPG,"Lawley, Gauteng, South Africa",Pending extraction,,,,,GPS Map Camera,ettienejvr@gmail.com,Pending,Needs manual extraction
180,PZLP3988.JPG,"Lawley, Gauteng, South Africa",Pending extraction,,,,,GPS Map Camera,ettienejvr@gmail.com,Pending,Needs manual extraction
181,PZLP6531.JPG,"Lawley, Gauteng, South Africa",Pending extraction,,,,,GPS Map Camera,ettienejvr@gmail.com,Pending,Needs manual extraction
182,QEMR7804.JPG,"Lawley, Gauteng, South Africa",Pending extraction,,,,,GPS Map Camera,ettienejvr@gmail.com,Pending,Needs manual extraction
183,QGPN5995.JPG,"Lawley, Gauteng, South Africa",Pending extraction,,,,,GPS Map Camera,ettienejvr@gmail.com,Pending,Needs manual extraction
184,QHDL4382.JPG,"Lawley, Gauteng, South Africa",Pending extraction,,,,,GPS Map Camera,ettienejvr@gmail.com,Pending,Needs manual extraction
185,QHJV5587.JPG,"Lawley, Gauteng, South Africa",Pending extraction,,,,,GPS Map Camera,ettienejvr@gmail.com,Pending,Needs manual extraction
186,QIZR3203.JPG,"Lawley, Gauteng, South Africa",Pending extraction,,,,,GPS Map Camera,ettienejvr@gmail.com,Pending,Needs manual extraction
187,QKAI8572.JPG,"Lawley, Gauteng, South Africa",Pending extraction,,,,,GPS Map Camera,ettienejvr@gmail.com,Pending,Needs manual extraction
188,QKJM0615.JPG,"Lawley, Gauteng, South Africa",Pending extraction,,,,,GPS Map Camera,ettienejvr@gmail.com,Pending,Needs manual extraction
189,QLOR1783.JPG,"Lawley, Gauteng, South Africa",Pending extraction,,,,,GPS Map Camera,ettienejvr@gmail.com,Pending,Needs manual extraction
190,QLZS2207.JPG,"Lawley, Gauteng, South Africa",Pending extraction,,,,,GPS Map Camera,ettienejvr@gmail.com,Pending,Needs manual extraction
191,QNAM7574.JPG,"Lawley, Gauteng, South Africa",Pending extraction,,,,,GPS Map Camera,ettienejvr@gmail.com,Pending,Needs manual extraction
192,QNTU5037.JPG,"Lawley, Gauteng, South Africa",Pending extraction,,,,,GPS Map Camera,ettienejvr@gmail.com,Pending,Needs manual extraction
193,QOCQ6232.JPG,"Lawley, Gauteng, South Africa",Pending extraction,,,,,GPS Map Camera,ettienejvr@gmail.com,Pending,Needs manual extraction
194,QPVF6496.JPG,"Lawley, Gauteng, South Africa",Pending extraction,,,,,GPS Map Camera,ettienejvr@gmail.com,Pending,Needs manual extraction
195,QRIQ8238.JPG,"Lawley, Gauteng, South Africa",Pending extraction,,,,,GPS Map Camera,ettienejvr@gmail.com,Pending,Needs manual extraction
196,QTFA6097.JPG,"Lawley, Gauteng, South Africa",Pending extraction,,,,,GPS Map Camera,ettienejvr@gmail.com,Pending,Needs manual extraction
197,QXXU4985.JPG,"Lawley, Gauteng, South Africa",Pending extraction,,,,,GPS Map Camera,ettienejvr@gmail.com,Pending,Needs manual extraction
198,RKGE6317.JPG,"Lawley, Gauteng, South Africa",Pending extraction,,,,,GPS Map Camera,ettienejvr@gmail.com,Pending,Needs manual extraction
199,RPBJ6661.JPG,"Lawley, Gauteng, South Africa",Pending extraction,,,,,GPS Map Camera,ettienejvr@gmail.com,Pending,Needs manual extraction
200,RPRQ0671.JPG,"Lawley, Gauteng, South Africa",Pending extraction,,,,,GPS Map Camera,ettienejvr@gmail.com,Pending,Needs manual extraction
201,RQBM3981.JPG,"Lawley, Gauteng, South Africa",Pending extraction,,,,,GPS Map Camera,ettienejvr@gmail.com,Pending,Needs manual extraction
202,RSIP4254.JPG,"Lawley, Gauteng, South Africa",Pending extraction,,,,,GPS Map Camera,ettienejvr@gmail.com,Pending,Needs manual extraction
203,RSSU1982.JPG,"Lawley, Gauteng, South Africa",Pending extraction,,,,,GPS Map Camera,ettienejvr@gmail.com,Pending,Needs manual extraction
204,RUCW4375.JPG,"Lawley, Gauteng, South Africa",Pending extraction,,,,,GPS Map Camera,ettienejvr@gmail.com,Pending,Needs manual extraction
205,RZNL7669.JPG,"Lawley, Gauteng, South Africa",Pending extraction,,,,,GPS Map Camera,ettienejvr@gmail.com,Pending,Needs manual extraction
206,RZPZ1249.JPG,"Lawley, Gauteng, South Africa",Pending extraction,,,,,GPS Map Camera,ettienejvr@gmail.com,Pending,Needs manual extraction
207,RZUQ0882.JPG,"Lawley, Gauteng, South Africa",Pending extraction,,,,,GPS Map Camera,ettienejvr@gmail.com,Pending,Needs manual extraction
208,SCAV0268.JPG,"Lawley, Gauteng, South Africa",Pending extraction,,,,,GPS Map Camera,ettienejvr@gmail.com,Pending,Needs manual extraction
209,SCPC2411.JPG,"Lawley, Gauteng, South Africa",Pending extraction,,,,,GPS Map Camera,ettienejvr@gmail.com,Pending,Needs manual extraction
210,SDRO4407.JPG,"Lawley, Gauteng, South Africa",Pending extraction,,,,,GPS Map Camera,ettienejvr@gmail.com,Pending,Needs manual extraction
211,SFKU5869.JPG,"Lawley, Gauteng, South Africa",Pending extraction,,,,,GPS Map Camera,ettienejvr@gmail.com,Pending,Needs manual extraction
212,SGGW4400.JPG,"Lawley, Gauteng, South Africa",Pending extraction,,,,,GPS Map Camera,ettienejvr@gmail.com,Pending,Needs manual extraction
213,SGOP2396.JPG,"Lawley, Gauteng, South Africa",Pending extraction,,,,,GPS Map Camera,ettienejvr@gmail.com,Pending,Needs manual extraction
214,SLTS7367.JPG,"Lawley, Gauteng, South Africa",Pending extraction,,,,,GPS Map Camera,ettienejvr@gmail.com,Pending,Needs manual extraction
215,SNZB2490.JPG,"Lawley, Gauteng, South Africa",Pending extraction,,,,,GPS Map Camera,ettienejvr@gmail.com,Pending,Needs manual extraction
216,SOHQ6720.JPG,"Lawley, Gauteng, South Africa",Pending extraction,,,,,GPS Map Camera,ettienejvr@gmail.com,Pending,Needs manual extraction
217,SPKH1135.JPG,"Lawley, Gauteng, South Africa",Pending extraction,,,,,GPS Map Camera,ettienejvr@gmail.com,Pending,Needs manual extraction
218,SSPG1126.JPG,"Lawley, Gauteng, South Africa",Pending extraction,,,,,GPS Map Camera,ettienejvr@gmail.com,Pending,Needs manual extraction
219,TBHV5255.JPG,"Lawley, Gauteng, South Africa",Pending extraction,,,,,GPS Map Camera,ettienejvr@gmail.com,Pending,Needs manual extraction
220,TCPI1013.JPG,"Lawley, Gauteng, South Africa",Pending extraction,,,,,GPS Map Camera,ettienejvr@gmail.com,Pending,Needs manual extraction
221,TELP8044.JPG,"Lawley, Gauteng, South Africa",Pending extraction,,,,,GPS Map Camera,ettienejvr@gmail.com,Pending,Needs manual extraction
222,TEWK4669.JPG,"Lawley, Gauteng, South Africa",Pending extraction,,,,,GPS Map Camera,ettienejvr@gmail.com,Pending,Needs manual extraction
223,TFGY3968.JPG,"Lawley, Gauteng, South Africa",Pending extraction,,,,,GPS Map Camera,ettienejvr@gmail.com,Pending,Needs manual extraction
224,TLNQ4300.JPG,"Lawley, Gauteng, South Africa",Pending extraction,,,,,GPS Map Camera,ettienejvr@gmail.com,Pending,Needs manual extraction
225,TNLM1397.JPG,"Lawley, Gauteng, South Africa",Pending extraction,,,,,GPS Map Camera,ettienejvr@gmail.com,Pending,Needs manual extraction
226,TUYE7948.JPG,"Lawley, Gauteng, South Africa",Pending extraction,,,,,GPS Map Camera,ettienejvr@gmail.com,Pending,Needs manual extraction
227,TVFQ6621.JPG,"Lawley, Gauteng, South Africa",Pending extraction,,,,,GPS Map Camera,ettienejvr@gmail.com,Pending,Needs manual extraction
228,TWOI4932.JPG,"Lawley, Gauteng, South Africa",Pending extraction,,,,,GPS Map Camera,ettienejvr@gmail.com,Pending,Needs manual extraction
229,UADC3182.JPG,"Lawley, Gauteng, South Africa",Pending extraction,,,,,GPS Map Camera,ettienejvr@gmail.com,Pending,Needs manual extraction
230,UAEF2339.JPG,"Lawley, Gauteng, South Africa",Pending extraction,,,,,GPS Map Camera,ettienejvr@gmail.com,Pending,Needs manual extraction
231,UDKC3881.JPG,"Lawley, Gauteng, South Africa",Pending extraction,,,,,GPS Map Camera,ettienejvr@gmail.com,Pending,Needs manual extraction
232,UDVJ6459.JPG,"Lawley, Gauteng, South Africa",Pending extraction,,,,,GPS Map Camera,ettienejvr@gmail.com,Pending,Needs manual extraction
233,UJHM6420.JPG,"Lawley, Gauteng, South Africa",Pending extraction,,,,,GPS Map Camera,ettienejvr@gmail.com,Pending,Needs manual extraction
234,UKZK6251.JPG,"Lawley, Gauteng, South Africa",Pending extraction,,,,,GPS Map Camera,ettienejvr@gmail.com,Pending,Needs manual extraction
235,ULKY5152.JPG,"Lawley, Gauteng, South Africa",Pending extraction,,,,,GPS Map Camera,ettienejvr@gmail.com,Pending,Needs manual extraction
236,UUZQ0214.JPG,"Lawley, Gauteng, South Africa","Lawley Road, Elandsfontein, Lawley, Gauteng 1830, South Africa",-26.382613,27.807202,"-26.382613, 27.807202",07/24/2025 03:14 PM GMT+02:00,GPS Map Camera,ettienejvr@gmail.com,Extracted,Manual Extraction
237,UVDN4826.JPG,"Lawley, Gauteng, South Africa",Pending extraction,,,,,GPS Map Camera,ettienejvr@gmail.com,Pending,Needs manual extraction
238,UYHX2141.JPG,"Lawley, Gauteng, South Africa",Pending extraction,,,,,GPS Map Camera,ettienejvr@gmail.com,Pending,Needs manual extraction
239,VACT9642.JPG,"Lawley, Gauteng, South Africa",Pending extraction,,,,,GPS Map Camera,ettienejvr@gmail.com,Pending,Needs manual extraction
240,VFXI5873.JPG,"Lawley, Gauteng, South Africa",Pending extraction,,,,,GPS Map Camera,ettienejvr@gmail.com,Pending,Needs manual extraction
241,VHQQ4500.JPG,"Lawley, Gauteng, South Africa",Pending extraction,,,,,GPS Map Camera,ettienejvr@gmail.com,Pending,Needs manual extraction
242,VIKN9189.JPG,"Lawley, Gauteng, South Africa",Pending extraction,,,,,GPS Map Camera,ettienejvr@gmail.com,Pending,Needs manual extraction
243,VITV2559.JPG,"Lawley, Gauteng, South Africa",Pending extraction,,,,,GPS Map Camera,ettienejvr@gmail.com,Pending,Needs manual extraction
244,VJBR8865.JPG,"Lawley, Gauteng, South Africa",Pending extraction,,,,,GPS Map Camera,ettienejvr@gmail.com,Pending,Needs manual extraction
245,VNJV1636.JPG,"Lawley, Gauteng, South Africa",Pending extraction,,,,,GPS Map Camera,ettienejvr@gmail.com,Pending,Needs manual extraction
246,VOEV0130.JPG,"Lawley, Gauteng, South Africa",Pending extraction,,,,,GPS Map Camera,ettienejvr@gmail.com,Pending,Needs manual extraction
247,VQTO0938.JPG,"Lawley, Gauteng, South Africa",Pending extraction,,,,,GPS Map Camera,ettienejvr@gmail.com,Pending,Needs manual extraction
248,VVTZ8254.JPG,"Lawley, Gauteng, South Africa",Pending extraction,,,,,GPS Map Camera,ettienejvr@gmail.com,Pending,Needs manual extraction
249,VZWT3807.JPG,"Lawley, Gauteng, South Africa",Pending extraction,,,,,GPS Map Camera,ettienejvr@gmail.com,Pending,Needs manual extraction
250,WDGD3512.JPG,"Lawley, Gauteng, South Africa",Pending extraction,,,,,GPS Map Camera,ettienejvr@gmail.com,Pending,Needs manual extraction
251,WERG9200.JPG,"Lawley, Gauteng, South Africa",Pending extraction,,,,,GPS Map Camera,ettienejvr@gmail.com,Pending,Needs manual extraction
252,WGZP0725.JPG,"Lawley, Gauteng, South Africa",Pending extraction,,,,,GPS Map Camera,ettienejvr@gmail.com,Pending,Needs manual extraction
253,WKNB3113.JPG,"Lawley, Gauteng, South Africa",Pending extraction,,,,,GPS Map Camera,ettienejvr@gmail.com,Pending,Needs manual extraction
254,WNIF2205.JPG,"Lawley, Gauteng, South Africa",Pending extraction,,,,,GPS Map Camera,ettienejvr@gmail.com,Pending,Needs manual extraction
255,WPUP1273.JPG,"Lawley, Gauteng, South Africa",Pending extraction,,,,,GPS Map Camera,ettienejvr@gmail.com,Pending,Needs manual extraction
256,WSRB6420.JPG,"Lawley, Gauteng, South Africa",Pending extraction,,,,,GPS Map Camera,ettienejvr@gmail.com,Pending,Needs manual extraction
257,WTFY1547.JPG,"Lawley, Gauteng, South Africa",Pending extraction,,,,,GPS Map Camera,ettienejvr@gmail.com,Pending,Needs manual extraction
258,WWAS6268.JPG,"Lawley, Gauteng, South Africa",Pending extraction,,,,,GPS Map Camera,ettienejvr@gmail.com,Pending,Needs manual extraction
259,WYRN2954.JPG,"Lawley, Gauteng, South Africa",Pending extraction,,,,,GPS Map Camera,ettienejvr@gmail.com,Pending,Needs manual extraction
260,XAZG0669.JPG,"Lawley, Gauteng, South Africa",Pending extraction,,,,,GPS Map Camera,ettienejvr@gmail.com,Pending,Needs manual extraction
261,XDZH3344.JPG,"Lawley, Gauteng, South Africa",Pending extraction,,,,,GPS Map Camera,ettienejvr@gmail.com,Pending,Needs manual extraction
262,XFKG0609.JPG,"Lawley, Gauteng, South Africa",Pending extraction,,,,,GPS Map Camera,ettienejvr@gmail.com,Pending,Needs manual extraction
263,XHPT1307.JPG,"Lawley, Gauteng, South Africa","2nd Avenue, Elandsfontein, Lawley, Gauteng 1830, South Africa",-26.383169,27.812837,"-26.383169, 27.812837",07/23/2025 10:13 AM GMT+02:00,GPS Map Camera,ettienejvr@gmail.com,Extracted,Manual Extraction
264,XJIL4173.JPG,"Lawley, Gauteng, South Africa",Pending extraction,,,,,GPS Map Camera,ettienejvr@gmail.com,Pending,Needs manual extraction
265,XJTC4692.JPG,"Lawley, Gauteng, South Africa",Pending extraction,,,,,GPS Map Camera,ettienejvr@gmail.com,Pending,Needs manual extraction
266,XKHY7283.JPG,"Lawley, Gauteng, South Africa",Pending extraction,,,,,GPS Map Camera,ettienejvr@gmail.com,Pending,Needs manual extraction
267,XKWN7211.JPG,"Lawley, Gauteng, South Africa",Pending extraction,,,,,GPS Map Camera,ettienejvr@gmail.com,Pending,Needs manual extraction
268,XLND0902.JPG,"Lawley, Gauteng, South Africa",Pending extraction,,,,,GPS Map Camera,ettienejvr@gmail.com,Pending,Needs manual extraction
269,XLVI6517.JPG,"Lawley, Gauteng, South Africa",Pending extraction,,,,,GPS Map Camera,ettienejvr@gmail.com,Pending,Needs manual extraction
270,XMVZ6722.JPG,"Lawley, Gauteng, South Africa",Pending extraction,,,,,GPS Map Camera,ettienejvr@gmail.com,Pending,Needs manual extraction
271,XOJB0232.JPG,"Lawley, Gauteng, South Africa",Pending extraction,,,,,GPS Map Camera,ettienejvr@gmail.com,Pending,Needs manual extraction
272,XPRM9810.JPG,"Lawley, Gauteng, South Africa",Pending extraction,,,,,GPS Map Camera,ettienejvr@gmail.com,Pending,Needs manual extraction
273,XULD6295.JPG,"Lawley, Gauteng, South Africa",Pending extraction,,,,,GPS Map Camera,ettienejvr@gmail.com,Pending,Needs manual extraction
274,XXIH3089.JPG,"Lawley, Gauteng, South Africa",Pending extraction,,,,,GPS Map Camera,ettienejvr@gmail.com,Pending,Needs manual extraction
275,XXSS4512.JPG,"Lawley, Gauteng, South Africa",Pending extraction,,,,,GPS Map Camera,ettienejvr@gmail.com,Pending,Needs manual extraction
276,XYWV9477.JPG,"Lawley, Gauteng, South Africa",Pending extraction,,,,,GPS Map Camera,ettienejvr@gmail.com,Pending,Needs manual extraction
277,YAJF1719.JPG,"Lawley, Gauteng, South Africa",Pending extraction,,,,,GPS Map Camera,ettienejvr@gmail.com,Pending,Needs manual extraction
278,YLJC3423.JPG,"Lawley, Gauteng, South Africa",Pending extraction,,,,,GPS Map Camera,ettienejvr@gmail.com,Pending,Needs manual extraction
