No.,File Name,Pole ID,Location,Full Address,Latitude,Longitude,GPS Coordinates,Date/Time,Status
1,ABKU4865.JPG,ETT-0001,"Lawley, Gauteng, South Africa",Pending manual extraction,,,,,Pending
2,ABOW5086.JPG,ETT-0002,"Lawley, Gauteng, South Africa","Barracuda Road, Elandsfontein, Lawley, Gauteng 1830, South Africa",-26.389451,27.807816,"-26.389451, 27.807816",07/23/2025 10:57 AM GMT+02:00,Extracted
3,AEJD0192.JPG,ETT-0003,"Lawley, Gauteng, South Africa","3rd Avenue, Elandsfontein, Lawley, Gauteng 1830, South Africa",-26.387176,27.806611,"-26.387176, 27.806611",07/23/2025 10:26 AM GMT+02:00,Extracted
4,AFKK3290.JPG,ETT-0004,"Lawley, Gauteng, South Africa",Pending manual extraction,,,,,Pending
5,AGJO0968.JPG,ETT-0005,"Lawley, Gauteng, South Africa",Pending manual extraction,,,,,Pending
6,ALDT8478.JPG,ETT-0006,"Lawley, Gauteng, South Africa",Pending manual extraction,,,,,Pending
7,ANGT3574.JPG,ETT-0007,"Lawley, Gauteng, South Africa",Pending manual extraction,,,,,Pending
8,AQXY9444.JPG,ETT-0008,"Lawley, Gauteng, South Africa",Pending manual extraction,,,,,Pending
9,ARDJ2862.JPG,ETT-0009,"Lawley, Gauteng, South Africa",Pending manual extraction,,,,,Pending
10,ARGS9536.JPG,ETT-0010,"Lawley, Gauteng, South Africa","2nd Avenue, Lawley Extento, Lawley, Gauteng 1830, South Africa",-26.37387,27.810132,"-26.37387, 27.810132",07/23/2025 02:05 PM GMT+02:00,Extracted
11,ARZV1695.JPG,ETT-0011,"Lawley, Gauteng, South Africa",Pending manual extraction,,,,,Pending
12,ASFR5899.JPG,ETT-0012,"Lawley, Gauteng, South Africa",Pending manual extraction,,,,,Pending
13,AVQE2541.JPG,ETT-0013,"Lawley, Gauteng, South Africa",Pending manual extraction,,,,,Pending
14,AXWD8963.JPG,ETT-0014,"Lawley, Gauteng, South Africa",Pending manual extraction,,,,,Pending
15,BAHM3423.JPG,ETT-0015,"Lawley, Gauteng, South Africa",Pending manual extraction,,,,,Pending
16,BBFL7303.JPG,ETT-0016,"Lawley, Gauteng, South Africa",Pending manual extraction,,,,,Pending
17,BBNO8820.JPG,ETT-0017,"Lawley, Gauteng, South Africa",Pending manual extraction,,,,,Pending
18,BIZJ8490.JPG,ETT-0018,"Lawley, Gauteng, South Africa",Pending manual extraction,,,,,Pending
19,BMCZ3397.JPG,ETT-0019,"Lawley, Gauteng, South Africa",Pending manual extraction,,,,,Pending
20,BMES8191.JPG,ETT-0020,"Lawley, Gauteng, South Africa",Pending manual extraction,,,,,Pending
21,BNZL9622.JPG,ETT-0021,"Lawley, Gauteng, South Africa",Pending manual extraction,,,,,Pending
22,BOTI0083.JPG,ETT-0022,"Lawley, Gauteng, South Africa",Pending manual extraction,,,,,Pending
23,BRMQ8573.JPG,ETT-0023,"Lawley, Gauteng, South Africa",Pending manual extraction,,,,,Pending
24,BSAC1151.JPG,ETT-0024,"Lawley, Gauteng, South Africa",Pending manual extraction,,,,,Pending
25,BSVV3015.JPG,ETT-0025,"Lawley, Gauteng, South Africa",Pending manual extraction,,,,,Pending
26,BVXT8184.JPG,ETT-0026,"Lawley, Gauteng, South Africa",Pending manual extraction,,,,,Pending
27,BWHK1080.JPG,ETT-0027,"Lawley, Gauteng, South Africa",Pending manual extraction,,,,,Pending
28,BYZJ7377.JPG,ETT-0028,"Lawley, Gauteng, South Africa",Pending manual extraction,,,,,Pending
29,CCHC6189.JPG,ETT-0029,"Lawley, Gauteng, South Africa",Pending manual extraction,,,,,Pending
30,CFEZ4826.JPG,ETT-0030,"Lawley, Gauteng, South Africa",Pending manual extraction,,,,,Pending
31,CHXX4480.JPG,ETT-0031,"Lawley, Gauteng, South Africa",Pending manual extraction,,,,,Pending
32,CIFN6820.JPG,ETT-0032,"Lawley, Gauteng, South Africa",Pending manual extraction,,,,,Pending
33,CKCL1172.JPG,ETT-0033,"Lawley, Gauteng, South Africa","Ramalepe Street, Elandsfontein, Lawley, Gauteng 1830, South Africa",-26.384188,27.806924,"-26.384188, 27.806924",07/24/2025 03:11 PM GMT+02:00,Extracted
34,CMFB6989.JPG,ETT-0034,"Lawley, Gauteng, South Africa",Pending manual extraction,,,,,Pending
35,CNPR3546.JPG,ETT-0035,"Lawley, Gauteng, South Africa",Pending manual extraction,,,,,Pending
36,CPIY3449.JPG,ETT-0036,"Lawley, Gauteng, South Africa",Pending manual extraction,,,,,Pending
37,CRCM2517.JPG,ETT-0037,"Lawley, Gauteng, South Africa",Pending manual extraction,,,,,Pending
38,CURY0142.JPG,ETT-0038,"Lawley, Gauteng, South Africa",Pending manual extraction,,,,,Pending
39,CUZE5708.JPG,ETT-0039,"Lawley, Gauteng, South Africa",Pending manual extraction,,,,,Pending
40,CVYD6786.JPG,ETT-0040,"Lawley, Gauteng, South Africa",Pending manual extraction,,,,,Pending
41,CWVA8617.JPG,ETT-0041,"Lawley, Gauteng, South Africa",Pending manual extraction,,,,,Pending
42,DIVV9861.JPG,ETT-0042,"Lawley, Gauteng, South Africa",Pending manual extraction,,,,,Pending
43,DLED9593.JPG,ETT-0043,"Lawley, Gauteng, South Africa",Pending manual extraction,,,,,Pending
44,DMWX1009.JPG,ETT-0044,"Lawley, Gauteng, South Africa","Barracuda Road, Elandsfontein, Lawley, Gauteng 1830, South Africa",-26.390316,27.810644,"-26.390316, 27.810644",07/23/2025 11:02 AM GMT+02:00,Extracted
45,DSSJ8820.JPG,ETT-0045,"Lawley, Gauteng, South Africa",Pending manual extraction,,,,,Pending
46,DWIS9846.JPG,ETT-0046,"Lawley, Gauteng, South Africa",Pending manual extraction,,,,,Pending
47,DXGS2451.JPG,ETT-0047,"Lawley, Gauteng, South Africa",Pending manual extraction,,,,,Pending
48,ECAT6148.JPG,ETT-0048,"Lawley, Gauteng, South Africa",Pending manual extraction,,,,,Pending
49,EGVZ5387.JPG,ETT-0049,"Lawley, Gauteng, South Africa",Pending manual extraction,,,,,Pending
50,EJGI5277.JPG,ETT-0050,"Lawley, Gauteng, South Africa",Pending manual extraction,,,,,Pending
51,EJOW5275.JPG,ETT-0051,"Lawley, Gauteng, South Africa",Pending manual extraction,,,,,Pending
52,EKVB0045.JPG,ETT-0052,"Lawley, Gauteng, South Africa",Pending manual extraction,,,,,Pending
53,ELEF5957.JPG,ETT-0053,"Lawley, Gauteng, South Africa",Pending manual extraction,,,,,Pending
54,ELGT6458.JPG,ETT-0054,"Lawley, Gauteng, South Africa",Pending manual extraction,,,,,Pending
55,EOCV4425.JPG,ETT-0055,"Lawley, Gauteng, South Africa",Pending manual extraction,,,,,Pending
56,EOIZ5717.JPG,ETT-0056,"Lawley, Gauteng, South Africa",Pending manual extraction,,,,,Pending
57,ETTC0277.JPG,ETT-0057,"Lawley, Gauteng, South Africa",Pending manual extraction,,,,,Pending
58,EWBU1563.JPG,ETT-0058,"Lawley, Gauteng, South Africa",Pending manual extraction,,,,,Pending
59,EWPN3355.JPG,ETT-0059,"Lawley, Gauteng, South Africa",Pending manual extraction,,,,,Pending
60,EYVK8258.JPG,ETT-0060,"Lawley, Gauteng, South Africa",Pending manual extraction,,,,,Pending
61,FCRK6534.JPG,ETT-0061,"Lawley, Gauteng, South Africa",Pending manual extraction,,,,,Pending
62,FEDH2359.JPG,ETT-0062,"Lawley, Gauteng, South Africa",Pending manual extraction,,,,,Pending
63,FGYH9883.JPG,ETT-0063,"Lawley, Gauteng, South Africa",Pending manual extraction,,,,,Pending
64,FKAS6112.JPG,ETT-0064,"Lawley, Gauteng, South Africa",Pending manual extraction,,,,,Pending
65,FOBP7095.JPG,ETT-0065,"Lawley, Gauteng, South Africa",Pending manual extraction,,,,,Pending
66,FPRN8261.JPG,ETT-0066,"Lawley, Gauteng, South Africa",Pending manual extraction,,,,,Pending
67,FPUA8230.JPG,ETT-0067,"Lawley, Gauteng, South Africa",Pending manual extraction,,,,,Pending
68,FQHP7703.JPG,ETT-0068,"Lawley, Gauteng, South Africa",Pending manual extraction,,,,,Pending
69,FRZT7746.JPG,ETT-0069,"Lawley, Gauteng, South Africa",Pending manual extraction,,,,,Pending
70,FSIE6113.JPG,ETT-0070,"Lawley, Gauteng, South Africa",Pending manual extraction,,,,,Pending
71,FUUK5806.JPG,ETT-0071,"Lawley, Gauteng, South Africa",Pending manual extraction,,,,,Pending
72,FVNM8623.JPG,ETT-0072,"Lawley, Gauteng, South Africa",Pending manual extraction,,,,,Pending
73,FWNA8701.JPG,ETT-0073,"Lawley, Gauteng, South Africa",Pending manual extraction,,,,,Pending
74,FZCN1104.JPG,ETT-0074,"Lawley, Gauteng, South Africa",Pending manual extraction,,,,,Pending
75,GBBN9148.JPG,ETT-0075,"Lawley, Gauteng, South Africa","Siyabonga Street, Elandsfontein, Lawley, Gauteng 1830, South Africa",-26.378948,27.809967,"-26.378948, 27.809967",07/23/2025 01:56 PM GMT+02:00,Extracted
76,GDJF1059.JPG,ETT-0076,"Lawley, Gauteng, South Africa",Pending manual extraction,,,,,Pending
77,GFXE6104.JPG,ETT-0077,"Lawley, Gauteng, South Africa",Pending manual extraction,,,,,Pending
78,GHOQ0380.JPG,ETT-0078,"Lawley, Gauteng, South Africa",Pending manual extraction,,,,,Pending
79,GPLX1215.JPG,ETT-0079,"Lawley, Gauteng, South Africa",Pending manual extraction,,,,,Pending
80,GTVE5972.JPG,ETT-0080,"Lawley, Gauteng, South Africa",Pending manual extraction,,,,,Pending
81,GUFJ6642.JPG,ETT-0081,"Lawley, Gauteng, South Africa",Pending manual extraction,,,,,Pending
82,GVSQ9506.JPG,ETT-0082,"Lawley, Gauteng, South Africa",Pending manual extraction,,,,,Pending
83,GXLF7888.JPG,ETT-0083,"Lawley, Gauteng, South Africa",Pending manual extraction,,,,,Pending
84,GXPW1294.JPG,ETT-0084,"Lawley, Gauteng, South Africa",Pending manual extraction,,,,,Pending
85,GYRT1650.JPG,ETT-0085,"Lawley, Gauteng, South Africa",Pending manual extraction,,,,,Pending
86,GZAZ0002.JPG,ETT-0086,"Lawley, Gauteng, South Africa",Pending manual extraction,,,,,Pending
87,GZZE1257.JPG,ETT-0087,"Lawley, Gauteng, South Africa",Pending manual extraction,,,,,Pending
88,HEBR8966.JPG,ETT-0088,"Lawley, Gauteng, South Africa",Pending manual extraction,,,,,Pending
89,HFJW0466.JPG,ETT-0089,"Lawley, Gauteng, South Africa",Pending manual extraction,,,,,Pending
90,HJTK6524.JPG,ETT-0090,"Lawley, Gauteng, South Africa",Pending manual extraction,,,,,Pending
91,HNWT8378.JPG,ETT-0091,"Lawley, Gauteng, South Africa",Pending manual extraction,,,,,Pending
92,HRHV1719.JPG,ETT-0092,"Lawley, Gauteng, South Africa","5th Avenue, Elandsfontein, Lawley, Gauteng 1830, South Africa",-26.382739,27.805834,"-26.382739, 27.805834",07/24/2025 03:35 PM GMT+02:00,Extracted
93,HXDI7619.JPG,ETT-0093,"Lawley, Gauteng, South Africa",Pending manual extraction,,,,,Pending
94,IHDN2384.JPG,ETT-0094,"Lawley, Gauteng, South Africa",Pending manual extraction,,,,,Pending
95,IKNO0666.JPG,ETT-0095,"Lawley, Gauteng, South Africa",Pending manual extraction,,,,,Pending
96,INYM6657.JPG,ETT-0096,"Lawley, Gauteng, South Africa",Pending manual extraction,,,,,Pending
97,ITSN6013.JPG,ETT-0097,"Lawley, Gauteng, South Africa",Pending manual extraction,,,,,Pending
98,IWTO6731.JPG,ETT-0098,"Lawley, Gauteng, South Africa",Pending manual extraction,,,,,Pending
99,IXQJ4199.JPG,ETT-0099,"Lawley, Gauteng, South Africa",Pending manual extraction,,,,,Pending
100,JBCX2606.JPG,ETT-0100,"Lawley, Gauteng, South Africa",Pending manual extraction,,,,,Pending
101,JFMR0303.JPG,ETT-0101,"Lawley, Gauteng, South Africa",Pending manual extraction,,,,,Pending
102,JHBL4173.JPG,ETT-0102,"Lawley, Gauteng, South Africa",Pending manual extraction,,,,,Pending
103,JICW4677.JPG,ETT-0103,"Lawley, Gauteng, South Africa",Pending manual extraction,,,,,Pending
104,JIFA6525.JPG,ETT-0104,"Lawley, Gauteng, South Africa",Pending manual extraction,,,,,Pending
105,JKBX4547.JPG,ETT-0105,"Lawley, Gauteng, South Africa",Pending manual extraction,,,,,Pending
106,JMGZ5849.JPG,ETT-0106,"Lawley, Gauteng, South Africa",Pending manual extraction,,,,,Pending
107,JOHX8627.JPG,ETT-0107,"Lawley, Gauteng, South Africa",Pending manual extraction,,,,,Pending
108,JORC3951.JPG,ETT-0108,"Lawley, Gauteng, South Africa",Pending manual extraction,,,,,Pending
109,JOXT4885.JPG,ETT-0109,"Lawley, Gauteng, South Africa",Pending manual extraction,,,,,Pending
110,JQAP0618.JPG,ETT-0110,"Lawley, Gauteng, South Africa",Pending manual extraction,,,,,Pending
111,JRBO4719.JPG,ETT-0111,"Lawley, Gauteng, South Africa",Pending manual extraction,,,,,Pending
112,JRES8871.JPG,ETT-0112,"Lawley, Gauteng, South Africa",Pending manual extraction,,,,,Pending
113,JRJK0074.JPG,ETT-0113,"Lawley, Gauteng, South Africa",Pending manual extraction,,,,,Pending
114,JTDL8318.JPG,ETT-0114,"Lawley, Gauteng, South Africa",Pending manual extraction,,,,,Pending
115,JUTQ2605.JPG,ETT-0115,"Lawley, Gauteng, South Africa",Pending manual extraction,,,,,Pending
116,KBFG9863.JPG,ETT-0116,"Lawley, Gauteng, South Africa",Pending manual extraction,,,,,Pending
117,KBJL5416.JPG,ETT-0117,"Lawley, Gauteng, South Africa",Pending manual extraction,,,,,Pending
118,KCNR7774.JPG,ETT-0118,"Lawley, Gauteng, South Africa",Pending manual extraction,,,,,Pending
119,KFAG2719.JPG,ETT-0119,"Lawley, Gauteng, South Africa",Pending manual extraction,,,,,Pending
120,KFPC4033.JPG,ETT-0120,"Lawley, Gauteng, South Africa",Pending manual extraction,,,,,Pending
121,KHXE4166.JPG,ETT-0121,"Lawley, Gauteng, South Africa",Pending manual extraction,,,,,Pending
122,KPPR4041.JPG,ETT-0122,"Lawley, Gauteng, South Africa",Pending manual extraction,,,,,Pending
123,KSLO7547.JPG,ETT-0123,"Lawley, Gauteng, South Africa",Pending manual extraction,,,,,Pending
124,KTRN8339.JPG,ETT-0124,"Lawley, Gauteng, South Africa",Pending manual extraction,,,,,Pending
125,KTRZ9107.JPG,ETT-0125,"Lawley, Gauteng, South Africa",Pending manual extraction,,,,,Pending
126,KUJV1094.JPG,ETT-0126,"Lawley, Gauteng, South Africa",Pending manual extraction,,,,,Pending
127,KXNH1740.JPG,ETT-0127,"Lawley, Gauteng, South Africa",Pending manual extraction,,,,,Pending
128,KZJG1774.JPG,ETT-0128,"Lawley, Gauteng, South Africa",Pending manual extraction,,,,,Pending
129,LAIT5665.JPG,ETT-0129,"Lawley, Gauteng, South Africa",Pending manual extraction,,,,,Pending
130,LAOI2088.JPG,ETT-0130,"Lawley, Gauteng, South Africa",Pending manual extraction,,,,,Pending
131,LAUZ9813.JPG,ETT-0131,"Lawley, Gauteng, South Africa",Pending manual extraction,,,,,Pending
132,LCAA3476.JPG,ETT-0132,"Lawley, Gauteng, South Africa",Pending manual extraction,,,,,Pending
133,LCPN6936.JPG,ETT-0133,"Lawley, Gauteng, South Africa",Pending manual extraction,,,,,Pending
134,LDVG2848.JPG,ETT-0134,"Lawley, Gauteng, South Africa",Pending manual extraction,,,,,Pending
135,LEFU9103.JPG,ETT-0135,"Lawley, Gauteng, South Africa","Piranha Crescent, Elandsfontein, Lawley, Gauteng 1830, South Africa",-26.39649,27.813118,"-26.39649, 27.813118",07/23/2025 11:22 AM GMT+02:00,Extracted
136,LGEK4848.JPG,ETT-0136,"Lawley, Gauteng, South Africa",Pending manual extraction,,,,,Pending
137,LHXN9576.JPG,ETT-0137,"Lawley, Gauteng, South Africa",Pending manual extraction,,,,,Pending
138,LJOK8305.JPG,ETT-0138,"Lawley, Gauteng, South Africa",Pending manual extraction,,,,,Pending
139,LJWO4036.JPG,ETT-0139,"Lawley, Gauteng, South Africa",Pending manual extraction,,,,,Pending
140,LKCO8361.JPG,ETT-0140,"Lawley, Gauteng, South Africa",Pending manual extraction,,,,,Pending
141,LLJV1719.JPG,ETT-0141,"Lawley, Gauteng, South Africa",Pending manual extraction,,,,,Pending
142,LLYH5166.JPG,ETT-0142,"Lawley, Gauteng, South Africa",Pending manual extraction,,,,,Pending
143,LNFJ1362.JPG,ETT-0143,"Lawley, Gauteng, South Africa",Pending manual extraction,,,,,Pending
144,LNUF3952.JPG,ETT-0144,"Lawley, Gauteng, South Africa",Pending manual extraction,,,,,Pending
145,LORQ7337.JPG,ETT-0145,"Lawley, Gauteng, South Africa",Pending manual extraction,,,,,Pending
146,LRJS8723.JPG,ETT-0146,"Lawley, Gauteng, South Africa",Pending manual extraction,,,,,Pending
147,LUGB2444.JPG,ETT-0147,"Lawley, Gauteng, South Africa",Pending manual extraction,,,,,Pending
148,LVQS7719.JPG,ETT-0148,"Lawley, Gauteng, South Africa",Pending manual extraction,,,,,Pending
149,LZMD6695.JPG,ETT-0149,"Lawley, Gauteng, South Africa",Pending manual extraction,,,,,Pending
150,MEOY2576.JPG,ETT-0150,"Lawley, Gauteng, South Africa",Pending manual extraction,,,,,Pending
151,MHVE8681.JPG,ETT-0151,"Lawley, Gauteng, South Africa",Pending manual extraction,,,,,Pending
152,MIHO6036.JPG,ETT-0152,"Lawley, Gauteng, South Africa",Pending manual extraction,,,,,Pending
153,MITJ8514.JPG,ETT-0153,"Lawley, Gauteng, South Africa",Pending manual extraction,,,,,Pending
154,MKPF8039.JPG,ETT-0154,"Lawley, Gauteng, South Africa",Pending manual extraction,,,,,Pending
155,MMSV5273.JPG,ETT-0155,"Lawley, Gauteng, South Africa",Pending manual extraction,,,,,Pending
156,MNQG8362.JPG,ETT-0156,"Lawley, Gauteng, South Africa",Pending manual extraction,,,,,Pending
157,MNYP0514.JPG,ETT-0157,"Lawley, Gauteng, South Africa",Pending manual extraction,,,,,Pending
158,MPLA1520.JPG,ETT-0158,"Lawley, Gauteng, South Africa",Pending manual extraction,,,,,Pending
159,MPLP6039.JPG,ETT-0159,"Lawley, Gauteng, South Africa",Pending manual extraction,,,,,Pending
160,MQKV3530.JPG,ETT-0160,"Lawley, Gauteng, South Africa",Pending manual extraction,,,,,Pending
161,MTKL1685.JPG,ETT-0161,"Lawley, Gauteng, South Africa",Pending manual extraction,,,,,Pending
162,MUPB9447.JPG,ETT-0162,"Lawley, Gauteng, South Africa",Pending manual extraction,,,,,Pending
163,MYFJ4833.JPG,ETT-0163,"Lawley, Gauteng, South Africa",Pending manual extraction,,,,,Pending
164,MZNQ5821.JPG,ETT-0164,"Lawley, Gauteng, South Africa",Pending manual extraction,,,,,Pending
165,NBAP8668.JPG,ETT-0165,"Lawley, Gauteng, South Africa",Pending manual extraction,,,,,Pending
166,NDXC1328.JPG,ETT-0166,"Lawley, Gauteng, South Africa",Pending manual extraction,,,,,Pending
167,NHZW0821.JPG,ETT-0167,"Lawley, Gauteng, South Africa",Pending manual extraction,,,,,Pending
168,NJOI9127.JPG,ETT-0168,"Lawley, Gauteng, South Africa",Pending manual extraction,,,,,Pending
169,NKSR0571.JPG,ETT-0169,"Lawley, Gauteng, South Africa",Pending manual extraction,,,,,Pending
170,NKWG1103.JPG,ETT-0170,"Lawley, Gauteng, South Africa",Pending manual extraction,,,,,Pending
171,NPQM8530.JPG,ETT-0171,"Lawley, Gauteng, South Africa",Pending manual extraction,,,,,Pending
172,NQRV6326.JPG,ETT-0172,"Lawley, Gauteng, South Africa",Pending manual extraction,,,,,Pending
173,NRIH6438.JPG,ETT-0173,"Lawley, Gauteng, South Africa",Pending manual extraction,,,,,Pending
174,NRLG8531.JPG,ETT-0174,"Lawley, Gauteng, South Africa",Pending manual extraction,,,,,Pending
175,NTIE7033.JPG,ETT-0175,"Lawley, Gauteng, South Africa",Pending manual extraction,,,,,Pending
176,NWLG6313.JPG,ETT-0176,"Lawley, Gauteng, South Africa",Pending manual extraction,,,,,Pending
177,NWMR0749.JPG,ETT-0177,"Lawley, Gauteng, South Africa",Pending manual extraction,,,,,Pending
178,NYJO1308.JPG,ETT-0178,"Lawley, Gauteng, South Africa",Pending manual extraction,,,,,Pending
179,NZCB5613.JPG,ETT-0179,"Lawley, Gauteng, South Africa",Pending manual extraction,,,,,Pending
180,OCBS9373.JPG,ETT-0180,"Lawley, Gauteng, South Africa",Pending manual extraction,,,,,Pending
181,ODND8736.JPG,ETT-0181,"Lawley, Gauteng, South Africa",Pending manual extraction,,,,,Pending
182,ODWC0090.JPG,ETT-0182,"Lawley, Gauteng, South Africa",Pending manual extraction,,,,,Pending
183,OEAH5618.JPG,ETT-0183,"Lawley, Gauteng, South Africa",Pending manual extraction,,,,,Pending
184,OEBI3834.JPG,ETT-0184,"Lawley, Gauteng, South Africa",Pending manual extraction,,,,,Pending
185,OLQR7875.JPG,ETT-0185,"Lawley, Gauteng, South Africa",Pending manual extraction,,,,,Pending
186,ONHR8259.JPG,ETT-0186,"Lawley, Gauteng, South Africa",Pending manual extraction,,,,,Pending
187,OQME9639.JPG,ETT-0187,"Lawley, Gauteng, South Africa",Pending manual extraction,,,,,Pending
188,OSEG0763.JPG,ETT-0188,"Lawley, Gauteng, South Africa",Pending manual extraction,,,,,Pending
189,OTQD9838.JPG,ETT-0189,"Lawley, Gauteng, South Africa",Pending manual extraction,,,,,Pending
190,OXDW8491.JPG,ETT-0190,"Lawley, Gauteng, South Africa",Pending manual extraction,,,,,Pending
191,OZXU2615.JPG,ETT-0191,"Lawley, Gauteng, South Africa",Pending manual extraction,,,,,Pending
192,PBAM8802.JPG,ETT-0192,"Lawley, Gauteng, South Africa",Pending manual extraction,,,,,Pending
193,PCFN7486.JPG,ETT-0193,"Lawley, Gauteng, South Africa",Pending manual extraction,,,,,Pending
194,PCUC0627.JPG,ETT-0194,"Lawley, Gauteng, South Africa",Pending manual extraction,,,,,Pending
195,PEPE9831.JPG,ETT-0195,"Lawley, Gauteng, South Africa",Pending manual extraction,,,,,Pending
196,PGCF9468.JPG,ETT-0196,"Lawley, Gauteng, South Africa",Pending manual extraction,,,,,Pending
197,PGCV4444.JPG,ETT-0197,"Lawley, Gauteng, South Africa",Pending manual extraction,,,,,Pending
198,PIBP1507.JPG,ETT-0198,"Lawley, Gauteng, South Africa",Pending manual extraction,,,,,Pending
199,PLRF4639.JPG,ETT-0199,"Lawley, Gauteng, South Africa",Pending manual extraction,,,,,Pending
200,PMNA6651.JPG,ETT-0200,"Lawley, Gauteng, South Africa",Pending manual extraction,,,,,Pending
201,PMRB1485.JPG,ETT-0201,"Lawley, Gauteng, South Africa",Pending manual extraction,,,,,Pending
202,POPM1636.JPG,ETT-0202,"Lawley, Gauteng, South Africa",Pending manual extraction,,,,,Pending
203,PPBN0325.JPG,ETT-0203,"Lawley, Gauteng, South Africa",Pending manual extraction,,,,,Pending
204,PPNO2972.JPG,ETT-0204,"Lawley, Gauteng, South Africa",Pending manual extraction,,,,,Pending
205,PRBU0329.JPG,ETT-0205,"Lawley, Gauteng, South Africa",Pending manual extraction,,,,,Pending
206,PSQY8436.JPG,ETT-0206,"Lawley, Gauteng, South Africa",Pending manual extraction,,,,,Pending
207,PXFC6466.JPG,ETT-0207,"Lawley, Gauteng, South Africa","2nd Avenue, Elandsfontein, Lawley, Gauteng 1830, South Africa",-26.384564,27.806597,"-26.384564, 27.806597",07/24/2025 03:04 PM GMT+02:00,Extracted
208,PYQN5343.JPG,ETT-0208,"Lawley, Gauteng, South Africa",Pending manual extraction,,,,,Pending
209,QDHP9454.JPG,ETT-0209,"Lawley, Gauteng, South Africa",Pending manual extraction,,,,,Pending
210,QEMX6173.JPG,ETT-0210,"Lawley, Gauteng, South Africa",Pending manual extraction,,,,,Pending
211,QEYO6451.JPG,ETT-0211,"Lawley, Gauteng, South Africa",Pending manual extraction,,,,,Pending
212,QFBI0536.JPG,ETT-0212,"Lawley, Gauteng, South Africa",Pending manual extraction,,,,,Pending
213,QGQW6325.JPG,ETT-0213,"Lawley, Gauteng, South Africa",Pending manual extraction,,,,,Pending
214,QHJM5322.JPG,ETT-0214,"Lawley, Gauteng, South Africa",Pending manual extraction,,,,,Pending
215,QISB6021.JPG,ETT-0215,"Lawley, Gauteng, South Africa",Pending manual extraction,,,,,Pending
216,QJTL3972.JPG,ETT-0216,"Lawley, Gauteng, South Africa",Pending manual extraction,,,,,Pending
217,QPNU3323.JPG,ETT-0217,"Lawley, Gauteng, South Africa",Pending manual extraction,,,,,Pending
218,QRVR5538.JPG,ETT-0218,"Lawley, Gauteng, South Africa",Pending manual extraction,,,,,Pending
219,QSJK9547.JPG,ETT-0219,"Lawley, Gauteng, South Africa",Pending manual extraction,,,,,Pending
220,QTWN6652.JPG,ETT-0220,"Lawley, Gauteng, South Africa",Pending manual extraction,,,,,Pending
221,QUBF3025.JPG,ETT-0221,"Lawley, Gauteng, South Africa",Pending manual extraction,,,,,Pending
222,QUEF8227.JPG,ETT-0222,"Lawley, Gauteng, South Africa",Pending manual extraction,,,,,Pending
223,QWAQ0973.JPG,ETT-0223,"Lawley, Gauteng, South Africa",Pending manual extraction,,,,,Pending
224,QXMW5588.JPG,ETT-0224,"Lawley, Gauteng, South Africa",Pending manual extraction,,,,,Pending
225,QYEX8313.JPG,ETT-0225,"Lawley, Gauteng, South Africa",Pending manual extraction,,,,,Pending
226,RANQ2421.JPG,ETT-0226,"Lawley, Gauteng, South Africa",Pending manual extraction,,,,,Pending
227,RBDR1618.JPG,ETT-0227,"Lawley, Gauteng, South Africa",Pending manual extraction,,,,,Pending
228,RBME2613.JPG,ETT-0228,"Lawley, Gauteng, South Africa",Pending manual extraction,,,,,Pending
229,RCFV2055.JPG,ETT-0229,"Lawley, Gauteng, South Africa",Pending manual extraction,,,,,Pending
230,RDUR8368.JPG,ETT-0230,"Lawley, Gauteng, South Africa",Pending manual extraction,,,,,Pending
231,REUZ6322.JPG,ETT-0231,"Lawley, Gauteng, South Africa",Pending manual extraction,,,,,Pending
232,RGVS8431.JPG,ETT-0232,"Lawley, Gauteng, South Africa",Pending manual extraction,,,,,Pending
233,RIPS1350.JPG,ETT-0233,"Lawley, Gauteng, South Africa",Pending manual extraction,,,,,Pending
234,RKQK9913.JPG,ETT-0234,"Lawley, Gauteng, South Africa",Pending manual extraction,,,,,Pending
235,RLRM6338.JPG,ETT-0235,"Lawley, Gauteng, South Africa",Pending manual extraction,,,,,Pending
236,RMWI0729.JPG,ETT-0236,"Lawley, Gauteng, South Africa",Pending manual extraction,,,,,Pending
237,RNFJ1063.JPG,ETT-0237,"Lawley, Gauteng, South Africa",Pending manual extraction,,,,,Pending
238,RORW7026.JPG,ETT-0238,"Lawley, Gauteng, South Africa",Pending manual extraction,,,,,Pending
239,RQBM3981.JPG,ETT-0239,"Lawley, Gauteng, South Africa","13 Enoch Street, Elandsfontein, Lawley, Gauteng 1830, South Africa",-26.380007,27.808841,"-26.380007, 27.808841",07/23/2025 02:15 PM GMT+02:00,Extracted
240,RRBU4373.JPG,ETT-0240,"Lawley, Gauteng, South Africa",Pending manual extraction,,,,,Pending
241,RRVZ4173.JPG,ETT-0241,"Lawley, Gauteng, South Africa",Pending manual extraction,,,,,Pending
242,RTLP0314.JPG,ETT-0242,"Lawley, Gauteng, South Africa",Pending manual extraction,,,,,Pending
243,RVUP3831.JPG,ETT-0243,"Lawley, Gauteng, South Africa",Pending manual extraction,,,,,Pending
244,RYPS9931.JPG,ETT-0244,"Lawley, Gauteng, South Africa",Pending manual extraction,,,,,Pending
245,SATI5739.JPG,ETT-0245,"Lawley, Gauteng, South Africa",Pending manual extraction,,,,,Pending
246,SBDL9139.JPG,ETT-0246,"Lawley, Gauteng, South Africa",Pending manual extraction,,,,,Pending
247,SCJH9451.JPG,ETT-0247,"Lawley, Gauteng, South Africa",Pending manual extraction,,,,,Pending
248,SFBN5016.JPG,ETT-0248,"Lawley, Gauteng, South Africa",Pending manual extraction,,,,,Pending
249,SFQG5322.JPG,ETT-0249,"Lawley, Gauteng, South Africa",Pending manual extraction,,,,,Pending
250,SGZE6472.JPG,ETT-0250,"Lawley, Gauteng, South Africa",Pending manual extraction,,,,,Pending
251,SHEZ6439.JPG,ETT-0251,"Lawley, Gauteng, South Africa",Pending manual extraction,,,,,Pending
252,SJBV8316.JPG,ETT-0252,"Lawley, Gauteng, South Africa",Pending manual extraction,,,,,Pending
253,SJPC4833.JPG,ETT-0253,"Lawley, Gauteng, South Africa",Pending manual extraction,,,,,Pending
254,SLPP5614.JPG,ETT-0254,"Lawley, Gauteng, South Africa",Pending manual extraction,,,,,Pending
255,SOXC2672.JPG,ETT-0255,"Lawley, Gauteng, South Africa",Pending manual extraction,,,,,Pending
256,SRMV1633.JPG,ETT-0256,"Lawley, Gauteng, South Africa",Pending manual extraction,,,,,Pending
257,STFG3263.JPG,ETT-0257,"Lawley, Gauteng, South Africa",Pending manual extraction,,,,,Pending
258,SUMS0614.JPG,ETT-0258,"Lawley, Gauteng, South Africa",Pending manual extraction,,,,,Pending
259,SVGX1327.JPG,ETT-0259,"Lawley, Gauteng, South Africa",Pending manual extraction,,,,,Pending
260,SWUW6227.JPG,ETT-0260,"Lawley, Gauteng, South Africa",Pending manual extraction,,,,,Pending
261,SZMD3227.JPG,ETT-0261,"Lawley, Gauteng, South Africa",Pending manual extraction,,,,,Pending
262,SZUP6213.JPG,ETT-0262,"Lawley, Gauteng, South Africa",Pending manual extraction,,,,,Pending
263,TBLQ6530.JPG,ETT-0263,"Lawley, Gauteng, South Africa",Pending manual extraction,,,,,Pending
264,TEPZ6516.JPG,ETT-0264,"Lawley, Gauteng, South Africa",Pending manual extraction,,,,,Pending
265,TFSN1636.JPG,ETT-0265,"Lawley, Gauteng, South Africa",Pending manual extraction,,,,,Pending
266,THEZ5306.JPG,ETT-0266,"Lawley, Gauteng, South Africa",Pending manual extraction,,,,,Pending
267,TNKE1606.JPG,ETT-0267,"Lawley, Gauteng, South Africa",Pending manual extraction,,,,,Pending
268,TQFP8414.JPG,ETT-0268,"Lawley, Gauteng, South Africa",Pending manual extraction,,,,,Pending
269,TSEM1617.JPG,ETT-0269,"Lawley, Gauteng, South Africa",Pending manual extraction,,,,,Pending
270,TSMN3637.JPG,ETT-0270,"Lawley, Gauteng, South Africa",Pending manual extraction,,,,,Pending
271,TUXT4622.JPG,ETT-0271,"Lawley, Gauteng, South Africa",Pending manual extraction,,,,,Pending
272,TVDA8406.JPG,ETT-0272,"Lawley, Gauteng, South Africa",Pending manual extraction,,,,,Pending
273,TVMU1036.JPG,ETT-0273,"Lawley, Gauteng, South Africa",Pending manual extraction,,,,,Pending
274,TVNS5616.JPG,ETT-0274,"Lawley, Gauteng, South Africa",Pending manual extraction,,,,,Pending
275,TWAK5022.JPG,ETT-0275,"Lawley, Gauteng, South Africa",Pending manual extraction,,,,,Pending
276,TYIS0931.JPG,ETT-0276,"Lawley, Gauteng, South Africa",Pending manual extraction,,,,,Pending
277,UABV0622.JPG,ETT-0277,"Lawley, Gauteng, South Africa",Pending manual extraction,,,,,Pending
278,UBTB4022.JPG,ETT-0278,"Lawley, Gauteng, South Africa",Pending manual extraction,,,,,Pending
279,UFXG5216.JPG,ETT-0279,"Lawley, Gauteng, South Africa",Pending manual extraction,,,,,Pending
280,UJGZ0822.JPG,ETT-0280,"Lawley, Gauteng, South Africa",Pending manual extraction,,,,,Pending
281,UNSJ6225.JPG,ETT-0281,"Lawley, Gauteng, South Africa",Pending manual extraction,,,,,Pending
282,UPLB0633.JPG,ETT-0282,"Lawley, Gauteng, South Africa",Pending manual extraction,,,,,Pending
283,UPLJ0418.JPG,ETT-0283,"Lawley, Gauteng, South Africa",Pending manual extraction,,,,,Pending
284,UQQG1506.JPG,ETT-0284,"Lawley, Gauteng, South Africa",Pending manual extraction,,,,,Pending
285,UQUZ5427.JPG,ETT-0285,"Lawley, Gauteng, South Africa",Pending manual extraction,,,,,Pending
286,UUZQ0214.JPG,ETT-0286,"Lawley, Gauteng, South Africa","Lawley Road, Elandsfontein, Lawley, Gauteng 1830, South Africa",-26.382613,27.807202,"-26.382613, 27.807202",07/24/2025 03:14 PM GMT+02:00,Extracted
287,UXNS5018.JPG,ETT-0287,"Lawley, Gauteng, South Africa",Pending manual extraction,,,,,Pending
288,UYZA0925.JPG,ETT-0288,"Lawley, Gauteng, South Africa",Pending manual extraction,,,,,Pending
289,VADY3016.JPG,ETT-0289,"Lawley, Gauteng, South Africa",Pending manual extraction,,,,,Pending
290,VAGO4422.JPG,ETT-0290,"Lawley, Gauteng, South Africa",Pending manual extraction,,,,,Pending
291,VAUO6318.JPG,ETT-0291,"Lawley, Gauteng, South Africa",Pending manual extraction,,,,,Pending
292,VBFG1823.JPG,ETT-0292,"Lawley, Gauteng, South Africa",Pending manual extraction,,,,,Pending
293,VGNP6823.JPG,ETT-0293,"Lawley, Gauteng, South Africa",Pending manual extraction,,,,,Pending
294,VJEB8230.JPG,ETT-0294,"Lawley, Gauteng, South Africa",Pending manual extraction,,,,,Pending
295,VJYR3517.JPG,ETT-0295,"Lawley, Gauteng, South Africa",Pending manual extraction,,,,,Pending
296,VLFP1423.JPG,ETT-0296,"Lawley, Gauteng, South Africa",Pending manual extraction,,,,,Pending
297,VOEA3027.JPG,ETT-0297,"Lawley, Gauteng, South Africa",Pending manual extraction,,,,,Pending
298,VQEA3923.JPG,ETT-0298,"Lawley, Gauteng, South Africa",Pending manual extraction,,,,,Pending
299,VSVS6418.JPG,ETT-0299,"Lawley, Gauteng, South Africa",Pending manual extraction,,,,,Pending
300,VXLM5031.JPG,ETT-0300,"Lawley, Gauteng, South Africa",Pending manual extraction,,,,,Pending
301,VYEY5616.JPG,ETT-0301,"Lawley, Gauteng, South Africa",Pending manual extraction,,,,,Pending
302,VYKO1425.JPG,ETT-0302,"Lawley, Gauteng, South Africa",Pending manual extraction,,,,,Pending
303,VYVI8725.JPG,ETT-0303,"Lawley, Gauteng, South Africa",Pending manual extraction,,,,,Pending
304,VZNG2419.JPG,ETT-0304,"Lawley, Gauteng, South Africa",Pending manual extraction,,,,,Pending
305,WAJO8427.JPG,ETT-0305,"Lawley, Gauteng, South Africa",Pending manual extraction,,,,,Pending
306,WCZN1525.JPG,ETT-0306,"Lawley, Gauteng, South Africa",Pending manual extraction,,,,,Pending
307,WGRV6920.JPG,ETT-0307,"Lawley, Gauteng, South Africa",Pending manual extraction,,,,,Pending
308,WHRD9825.JPG,ETT-0308,"Lawley, Gauteng, South Africa",Pending manual extraction,,,,,Pending
309,WIXU8430.JPG,ETT-0309,"Lawley, Gauteng, South Africa",Pending manual extraction,,,,,Pending
310,WJUZ1018.JPG,ETT-0310,"Lawley, Gauteng, South Africa",Pending manual extraction,,,,,Pending
311,WKXJ5228.JPG,ETT-0311,"Lawley, Gauteng, South Africa",Pending manual extraction,,,,,Pending
312,WMFQ4917.JPG,ETT-0312,"Lawley, Gauteng, South Africa",Pending manual extraction,,,,,Pending
313,WMLY5320.JPG,ETT-0313,"Lawley, Gauteng, South Africa",Pending manual extraction,,,,,Pending
314,WPNJ8622.JPG,ETT-0314,"Lawley, Gauteng, South Africa",Pending manual extraction,,,,,Pending
315,WVGA0522.JPG,ETT-0315,"Lawley, Gauteng, South Africa",Pending manual extraction,,,,,Pending
316,WXYX8617.JPG,ETT-0316,"Lawley, Gauteng, South Africa",Pending manual extraction,,,,,Pending
317,XCVR5316.JPG,ETT-0317,"Lawley, Gauteng, South Africa",Pending manual extraction,,,,,Pending
318,XFEQ6622.JPG,ETT-0318,"Lawley, Gauteng, South Africa",Pending manual extraction,,,,,Pending
319,XHPT1307.JPG,ETT-0319,"Lawley, Gauteng, South Africa","2nd Avenue, Elandsfontein, Lawley, Gauteng 1830, South Africa",-26.383169,27.812837,"-26.383169, 27.812837",07/23/2025 10:13 AM GMT+02:00,Extracted
320,XKIF9030.JPG,ETT-0320,"Lawley, Gauteng, South Africa",Pending manual extraction,,,,,Pending
321,XLOM3420.JPG,ETT-0321,"Lawley, Gauteng, South Africa",Pending manual extraction,,,,,Pending
322,XNAX9318.JPG,ETT-0322,"Lawley, Gauteng, South Africa",Pending manual extraction,,,,,Pending
323,XQGL6520.JPG,ETT-0323,"Lawley, Gauteng, South Africa",Pending manual extraction,,,,,Pending
324,XRSG3030.JPG,ETT-0324,"Lawley, Gauteng, South Africa",Pending manual extraction,,,,,Pending
325,XSUA9927.JPG,ETT-0325,"Lawley, Gauteng, South Africa",Pending manual extraction,,,,,Pending
326,XTPP8217.JPG,ETT-0326,"Lawley, Gauteng, South Africa",Pending manual extraction,,,,,Pending
327,XVHQ2227.JPG,ETT-0327,"Lawley, Gauteng, South Africa",Pending manual extraction,,,,,Pending
328,XWJF7322.JPG,ETT-0328,"Lawley, Gauteng, South Africa",Pending manual extraction,,,,,Pending
329,XZBE3830.JPG,ETT-0329,"Lawley, Gauteng, South Africa",Pending manual extraction,,,,,Pending
330,XZCM8622.JPG,ETT-0330,"Lawley, Gauteng, South Africa",Pending manual extraction,,,,,Pending
331,YADZ8522.JPG,ETT-0331,"Lawley, Gauteng, South Africa",Pending manual extraction,,,,,Pending
332,YCDM5023.JPG,ETT-0332,"Lawley, Gauteng, South Africa",Pending manual extraction,,,,,Pending
333,YCRG2822.JPG,ETT-0333,"Lawley, Gauteng, South Africa",Pending manual extraction,,,,,Pending
334,YESZ5233.JPG,ETT-0334,"Lawley, Gauteng, South Africa",Pending manual extraction,,,,,Pending
335,YHEN1323.JPG,ETT-0335,"Lawley, Gauteng, South Africa",Pending manual extraction,,,,,Pending
336,YHNB5422.JPG,ETT-0336,"Lawley, Gauteng, South Africa",Pending manual extraction,,,,,Pending
337,YIAL6817.JPG,ETT-0337,"Lawley, Gauteng, South Africa",Pending manual extraction,,,,,Pending
338,YITF5030.JPG,ETT-0338,"Lawley, Gauteng, South Africa",Pending manual extraction,,,,,Pending
339,YJLK5420.JPG,ETT-0339,"Lawley, Gauteng, South Africa",Pending manual extraction,,,,,Pending
340,YKDR8119.JPG,ETT-0340,"Lawley, Gauteng, South Africa",Pending manual extraction,,,,,Pending
341,YLIR6431.JPG,ETT-0341,"Lawley, Gauteng, South Africa",Pending manual extraction,,,,,Pending
342,YNYX0320.JPG,ETT-0342,"Lawley, Gauteng, South Africa",Pending manual extraction,,,,,Pending
343,YQAE8728.JPG,ETT-0343,"Lawley, Gauteng, South Africa",Pending manual extraction,,,,,Pending
344,YQCS3818.JPG,ETT-0344,"Lawley, Gauteng, South Africa",Pending manual extraction,,,,,Pending
345,YRRT1533.JPG,ETT-0345,"Lawley, Gauteng, South Africa",Pending manual extraction,,,,,Pending
346,YSOZ6023.JPG,ETT-0346,"Lawley, Gauteng, South Africa",Pending manual extraction,,,,,Pending
347,YTPH3223.JPG,ETT-0347,"Lawley, Gauteng, South Africa",Pending manual extraction,,,,,Pending
348,YUBT6530.JPG,ETT-0348,"Lawley, Gauteng, South Africa",Pending manual extraction,,,,,Pending
349,YUSG5633.JPG,ETT-0349,"Lawley, Gauteng, South Africa",Pending manual extraction,,,,,Pending
350,YWHN8729.JPG,ETT-0350,"Lawley, Gauteng, South Africa",Pending manual extraction,,,,,Pending
351,YWZI3130.JPG,ETT-0351,"Lawley, Gauteng, South Africa",Pending manual extraction,,,,,Pending
352,YYJU4817.JPG,ETT-0352,"Lawley, Gauteng, South Africa",Pending manual extraction,,,,,Pending
353,YZJG1027.JPG,ETT-0353,"Lawley, Gauteng, South Africa",Pending manual extraction,,,,,Pending
354,YZKS2618.JPG,ETT-0354,"Lawley, Gauteng, South Africa",Pending manual extraction,,,,,Pending
355,ZCQW3233.JPG,ETT-0355,"Lawley, Gauteng, South Africa",Pending manual extraction,,,,,Pending
356,ZDKG9530.JPG,ETT-0356,"Lawley, Gauteng, South Africa",Pending manual extraction,,,,,Pending
357,ZDLY0123.JPG,ETT-0357,"Lawley, Gauteng, South Africa",Pending manual extraction,,,,,Pending
358,ZDUK4917.JPG,ETT-0358,"Lawley, Gauteng, South Africa",Pending manual extraction,,,,,Pending
359,ZEAU8730.JPG,ETT-0359,"Lawley, Gauteng, South Africa",Pending manual extraction,,,,,Pending
360,ZFXK2820.JPG,ETT-0360,"Lawley, Gauteng, South Africa",Pending manual extraction,,,,,Pending
361,ZGAR6220.JPG,ETT-0361,"Lawley, Gauteng, South Africa",Pending manual extraction,,,,,Pending
362,ZMCF6617.JPG,ETT-0362,"Lawley, Gauteng, South Africa",Pending manual extraction,,,,,Pending
363,ZPYX9022.JPG,ETT-0363,"Lawley, Gauteng, South Africa",Pending manual extraction,,,,,Pending
364,ZTAA9023.JPG,ETT-0364,"Lawley, Gauteng, South Africa",Pending manual extraction,,,,,Pending
365,ZTNC8118.JPG,ETT-0365,"Lawley, Gauteng, South Africa",Pending manual extraction,,,,,Pending
366,ZTXE6725.JPG,ETT-0366,"Lawley, Gauteng, South Africa",Pending manual extraction,,,,,Pending
367,ZUTY6922.JPG,ETT-0367,"Lawley, Gauteng, South Africa",Pending manual extraction,,,,,Pending
368,ZUWG2822.JPG,ETT-0368,"Lawley, Gauteng, South Africa",Pending manual extraction,,,,,Pending
369,ZVVH9625.JPG,ETT-0369,"Lawley, Gauteng, South Africa",Pending manual extraction,,,,,Pending
370,ZXRE1527.JPG,ETT-0370,"Lawley, Gauteng, South Africa",Pending manual extraction,,,,,Pending
